{"type":"FeatureCollection","attribution":"© OpenStreetMap contributors, ODbL 1.0 — https://www.openstreetmap.org/copyright","generated":"2026-10-08T18:21:01.968Z","source":"Overpass API","bboxes":{"glasnevin":[53.3825,-6.2635,53.3885,-6.2505],"drumcondra":[53.3685,-6.2575,53.3755,-6.2475]},"features":[{"type":"Feature","id":"relation/5467501","properties":{"osmType":"relation","osmId":5467501,"name":"Dublin City University All Hallows Campus","ref":null,"building":null,"levels":null,"note":null,"kind":"campus","campus":"allhallows"},"geometry":{"type":"Polygon","coordinates":[[[-6.2473179,53.3709673],[-6.2473645,53.3708489],[-6.2473716,53.370831],[-6.2476975,53.3704391],[-6.2478561,53.3702343],[-6.2479391,53.3701271],[-6.2479987,53.3700863],[-6.2480755,53.3700513],[-6.2481027,53.3700512],[-6.24813,53.3700511],[-6.2481883,53.3699054],[-6.2482498,53.369823],[-6.2487271,53.3693146],[-6.2487664,53.3692914],[-6.2488151,53.369276],[-6.2488745,53.3692737],[-6.2489308,53.3692789],[-6.2494709,53.3694182],[-6.2499796,53.3696299],[-6.2501037,53.3696973],[-6.2501811,53.3697461],[-6.2502754,53.3698],[-6.2503599,53.3698516],[-6.2504075,53.3699108],[-6.2504386,53.3699944],[-6.2504644,53.370057],[-6.2504804,53.3701384],[-6.2504968,53.370222],[-6.2505089,53.3703458],[-6.2505072,53.3704184],[-6.2505057,53.3704809],[-6.2504834,53.3705494],[-6.2504482,53.3705646],[-6.2504261,53.3705764],[-6.2504088,53.370599],[-6.2503677,53.3706846],[-6.2503095,53.3706714],[-6.2502219,53.370772],[-6.2499433,53.3708142],[-6.2496445,53.3713875],[-6.2502052,53.3714252],[-6.2501368,53.3717734],[-6.2499592,53.3719391],[-6.2499654,53.3722606],[-6.24996,53.3723144],[-6.2499304,53.3726061],[-6.2497843,53.3726235],[-6.2492368,53.3726885],[-6.2491998,53.3726927],[-6.2490139,53.372714],[-6.2483789,53.3727319],[-6.2482538,53.3727448],[-6.2481085,53.3727771],[-6.248033,53.3728056],[-6.2479704,53.3728385],[-6.2478828,53.3728863],[-6.2468044,53.3726543],[-6.2464286,53.3725735],[-6.2469278,53.3718169],[-6.2473179,53.3709673]]]}},{"type":"Feature","id":"way/135230135","properties":{"osmType":"way","osmId":135230135,"name":"Dublin City University Glasnevin Campus","ref":null,"building":null,"levels":null,"note":null,"kind":"campus","campus":"glasnevin"},"geometry":{"type":"Polygon","coordinates":[[[-6.2649693,53.3847031],[-6.2649568,53.3847794],[-6.264942,53.384848],[-6.2649422,53.3848681],[-6.2649198,53.3848822],[-6.2648691,53.3848475],[-6.2627265,53.3848885],[-6.2620531,53.3849008],[-6.2619765,53.3849022],[-6.2619736,53.3850674],[-6.2619338,53.3854705],[-6.2624595,53.3854961],[-6.2623683,53.3860448],[-6.2616495,53.3859856],[-6.2616273,53.3863289],[-6.2616259,53.3865257],[-6.2616143,53.3866078],[-6.2615887,53.3869163],[-6.2615866,53.3869451],[-6.2615356,53.3871341],[-6.2614617,53.3873454],[-6.2611576,53.3872977],[-6.2609521,53.3872654],[-6.2608339,53.3874227],[-6.2607304,53.3874733],[-6.2599898,53.3872096],[-6.2593378,53.3869906],[-6.2590543,53.3868941],[-6.2584886,53.3875222],[-6.2577721,53.387263],[-6.2553128,53.3863733],[-6.2548477,53.3862048],[-6.2527945,53.3854482],[-6.2528186,53.3853763],[-6.2529633,53.3848249],[-6.2529718,53.3847824],[-6.2533079,53.3830969],[-6.2545907,53.3834146],[-6.2549191,53.3837587],[-6.2550567,53.383764],[-6.2565481,53.3832531],[-6.2568063,53.3831302],[-6.2576361,53.3828024],[-6.2580805,53.3826073],[-6.2582476,53.3827976],[-6.258371,53.3829128],[-6.2588794,53.3833707],[-6.2589638,53.3834728],[-6.2587441,53.3846751],[-6.2587252,53.3847786],[-6.2587938,53.3848155],[-6.2591012,53.3848095],[-6.2600987,53.3847942],[-6.2604417,53.3847889],[-6.2635774,53.3847295],[-6.2649693,53.3847031]]]}},{"type":"Feature","id":"way/32118047","properties":{"osmType":"way","osmId":32118047,"name":"Dublin City University Saint Patrick's Campus","ref":null,"building":null,"levels":null,"note":"From 2015 this will be known as the Institute of Education DCU","kind":"campus","campus":"stpatricks"},"geometry":{"type":"Polygon","coordinates":[[[-6.2587938,53.3707532],[-6.2586793,53.3709924],[-6.2584069,53.3713918],[-6.2582471,53.371634],[-6.2575311,53.3726722],[-6.2573177,53.372976],[-6.2570681,53.3733452],[-6.2565802,53.3732803],[-6.255672,53.3729842],[-6.2551986,53.3728336],[-6.2550543,53.3727869],[-6.254585,53.3726348],[-6.2541384,53.3724511],[-6.2540282,53.3724116],[-6.2540544,53.3723808],[-6.2533688,53.3721426],[-6.2530752,53.3720501],[-6.2531036,53.3720128],[-6.2533006,53.3718125],[-6.2533249,53.3717878],[-6.2533566,53.3717409],[-6.2536175,53.3713272],[-6.253853,53.3709404],[-6.25404,53.3706008],[-6.254063,53.3705637],[-6.254148,53.3704246],[-6.2541739,53.3704279],[-6.2541987,53.3704264],[-6.2542209,53.3704189],[-6.2542377,53.3704057],[-6.254238,53.3703909],[-6.2542297,53.3703747],[-6.2542139,53.3703638],[-6.2541932,53.3703559],[-6.2542165,53.3703202],[-6.2548468,53.3693533],[-6.2550793,53.3689966],[-6.2557714,53.369215],[-6.255787,53.3692295],[-6.2557776,53.3692472],[-6.2558018,53.3692555],[-6.2558267,53.3692625],[-6.2558454,53.3692518],[-6.2558726,53.3692489],[-6.2578755,53.3698403],[-6.2575236,53.3702857],[-6.2588432,53.3706497],[-6.2587938,53.3707532]]]}},{"type":"Feature","id":"relation/1173003","properties":{"osmType":"relation","osmId":1173003,"name":"Larkfield Residences","ref":"V1","building":"dormitory","levels":"2","note":"Apartments VG01-V256","kind":"building","campus":"glasnevin","centroid":[53.3845398,-6.2570179]},"geometry":{"type":"Polygon","coordinates":[[[-6.2570398,53.3848488],[-6.2570479,53.3848557],[-6.257063,53.3848591],[-6.2570794,53.3848568],[-6.257113,53.3848266],[-6.2571877,53.3848547],[-6.2572081,53.3848355],[-6.2572238,53.384835],[-6.2572218,53.3848241],[-6.2572578,53.3847834],[-6.257289,53.3847811],[-6.2572835,53.3847633],[-6.2573154,53.3847342],[-6.2573418,53.3847316],[-6.2573355,53.3847159],[-6.2573717,53.384683],[-6.2573986,53.3846814],[-6.2573928,53.3846621],[-6.257424,53.3846342],[-6.2574474,53.3846331],[-6.257441,53.3846189],[-6.2574828,53.3845798],[-6.2575082,53.3845794],[-6.2574989,53.3845643],[-6.2575304,53.3845313],[-6.2575572,53.3845297],[-6.2575524,53.3845132],[-6.2575643,53.3844966],[-6.2574895,53.3844682],[-6.257521,53.3844328],[-6.25752,53.3844268],[-6.257518,53.3844212],[-6.257513,53.3844176],[-6.2575053,53.3844152],[-6.2574996,53.3844154],[-6.2574905,53.3844158],[-6.2574835,53.3844182],[-6.2574664,53.384431],[-6.2574419,53.384422],[-6.2574577,53.3844076],[-6.2574443,53.3844028],[-6.2574255,53.384396],[-6.2574225,53.3843844],[-6.2574001,53.3843861],[-6.2573378,53.3843617],[-6.2573368,53.38435],[-6.2573134,53.3843522],[-6.2572763,53.3843377],[-6.2572555,53.3843296],[-6.2572527,53.3843163],[-6.2572297,53.3843195],[-6.2572202,53.3843158],[-6.2571673,53.3842965],[-6.2571634,53.3842849],[-6.2571449,53.3842883],[-6.2570829,53.3842656],[-6.2570792,53.3842521],[-6.2570575,53.3842564],[-6.2570089,53.384239],[-6.2570071,53.3842341],[-6.2570035,53.3842271],[-6.2569948,53.3842217],[-6.2569817,53.3842206],[-6.2569599,53.384226],[-6.2569317,53.3842539],[-6.2568508,53.3842255],[-6.256835,53.3842406],[-6.2568074,53.3842414],[-6.2568157,53.384259],[-6.2567819,53.3842913],[-6.2567487,53.3842942],[-6.2567603,53.3843119],[-6.256728,53.3843414],[-6.2566951,53.3843452],[-6.2567061,53.3843636],[-6.2566721,53.3843966],[-6.256642,53.3843989],[-6.2566506,53.3844166],[-6.2566195,53.3844463],[-6.2565854,53.3844509],[-6.2565949,53.3844697],[-6.2565644,53.3844978],[-6.2565306,53.3845014],[-6.2565419,53.3845207],[-6.2565087,53.3845522],[-6.2564819,53.3845543],[-6.2564892,53.3845707],[-6.2564688,53.384592],[-6.2565567,53.3846226],[-6.2565278,53.3846509],[-6.2565258,53.3846575],[-6.2565268,53.3846627],[-6.2565325,53.3846685],[-6.2565369,53.3846707],[-6.256551,53.3846731],[-6.2565577,53.3846721],[-6.2565627,53.3846709],[-6.256609,53.3846855],[-6.25661,53.3847027],[-6.2566348,53.3846987],[-6.2566911,53.3847177],[-6.2566968,53.3847345],[-6.2567226,53.3847297],[-6.2567763,53.3847499],[-6.2567841,53.3847681],[-6.2568098,53.3847617],[-6.2568249,53.3847677],[-6.2568638,53.3847817],[-6.2568675,53.3847977],[-6.2568996,53.3847921],[-6.256954,53.3848112],[-6.256958,53.3848264],[-6.2569835,53.3848216],[-6.2570345,53.3848408],[-6.2570398,53.3848488]],[[-6.257105,53.3847601],[-6.2571184,53.3847574],[-6.2571164,53.3847538],[-6.2571254,53.3847406],[-6.2571161,53.3847206],[-6.2571497,53.384715],[-6.2571804,53.3846869],[-6.2571708,53.3846672],[-6.2572077,53.3846656],[-6.2572396,53.3846334],[-6.2572249,53.3846162],[-6.2572603,53.3846133],[-6.2572893,53.384585],[-6.2572801,53.3845671],[-6.2573145,53.3845608],[-6.2573414,53.384534],[-6.2573287,53.3845161],[-6.2573661,53.3845121],[-6.2573822,53.3844989],[-6.2573805,53.3844925],[-6.2573786,53.3844856],[-6.2573503,53.3844765],[-6.2573201,53.3844805],[-6.257314,53.384464],[-6.257265,53.384444],[-6.2572337,53.3844478],[-6.2572277,53.38443],[-6.2571973,53.3844181],[-6.2571747,53.3844098],[-6.2571481,53.3844171],[-6.2571426,53.3843976],[-6.2571219,53.3843908],[-6.2570902,53.3843805],[-6.2570604,53.3843834],[-6.257056,53.3843669],[-6.257004,53.3843482],[-6.2569726,53.3843555],[-6.2569678,53.3843355],[-6.2569492,53.3843257],[-6.2569469,53.3843192],[-6.2569327,53.384321],[-6.2569209,53.3843225],[-6.2569237,53.3843302],[-6.2569146,53.3843419],[-6.2569196,53.3843612],[-6.2568907,53.3843639],[-6.2568503,53.384399],[-6.2568581,53.3844161],[-6.2568291,53.3844168],[-6.2567984,53.3844464],[-6.2568031,53.3844631],[-6.2567784,53.3844656],[-6.2567455,53.3844973],[-6.2567505,53.3845146],[-6.2567247,53.3845173],[-6.2566884,53.3845527],[-6.2567015,53.3845683],[-6.2566707,53.3845724],[-6.2566571,53.3845823],[-6.2566437,53.3845829],[-6.256645,53.3845924],[-6.2566466,53.3846047],[-6.2566653,53.3846038],[-6.2566797,53.3846107],[-6.2567116,53.3846069],[-6.2567167,53.3846222],[-6.2567729,53.3846407],[-6.2567994,53.3846361],[-6.2568076,53.3846528],[-6.2568327,53.3846624],[-6.2568527,53.3846701],[-6.2568885,53.384668],[-6.2568913,53.3846849],[-6.2569038,53.3846895],[-6.2569229,53.3846966],[-6.2569415,53.3847034],[-6.256974,53.3846987],[-6.2569809,53.3847155],[-6.2570323,53.3847341],[-6.2570594,53.3847297],[-6.257067,53.3847462],[-6.2570879,53.3847572],[-6.2570911,53.3847629],[-6.257105,53.3847601]]]}},{"type":"Feature","id":"relation/1173004","properties":{"osmType":"relation","osmId":1173004,"name":"Hampstead Residences","ref":"V2","building":"dormitory","levels":"4","note":"Houses 1-10","kind":"building","campus":"glasnevin","centroid":[53.3839621,-6.257616]},"geometry":{"type":"Polygon","coordinates":[[[-6.2578049,53.38438],[-6.2581439,53.384064],[-6.2583312,53.3838861],[-6.2574224,53.3835459],[-6.257233,53.383726],[-6.2569001,53.3840361],[-6.2573504,53.3842073],[-6.2578049,53.38438]],[[-6.2577397,53.3842252],[-6.2578738,53.3840923],[-6.2578576,53.3840865],[-6.2578708,53.3840735],[-6.257885,53.3840595],[-6.2579012,53.3840653],[-6.2579696,53.3839988],[-6.2580356,53.3839361],[-6.2580051,53.3839247],[-6.258012,53.3839181],[-6.2580171,53.3839132],[-6.257922,53.3838776],[-6.2579115,53.3838876],[-6.2578797,53.3838758],[-6.2578479,53.383864],[-6.2578585,53.3838538],[-6.2576392,53.3837717],[-6.2576268,53.3837836],[-6.2575971,53.3837725],[-6.2575661,53.383761],[-6.2575786,53.3837491],[-6.2574838,53.3837136],[-6.2574748,53.3837222],[-6.2574684,53.3837282],[-6.257438,53.3837168],[-6.2573732,53.3837784],[-6.2573025,53.3838474],[-6.2573182,53.383853],[-6.257305,53.3838662],[-6.2572929,53.3838783],[-6.2572773,53.3838728],[-6.2571403,53.3840045],[-6.2571666,53.3840134],[-6.2571609,53.3840194],[-6.2571537,53.384027],[-6.2572667,53.3840652],[-6.2572757,53.3840564],[-6.2573036,53.3840668],[-6.2573291,53.3840763],[-6.25732,53.384085],[-6.2573905,53.3841111],[-6.2574293,53.3841255],[-6.2575347,53.3841648],[-6.2575452,53.3841549],[-6.2575738,53.3841656],[-6.2575991,53.3841751],[-6.2575887,53.384185],[-6.2576996,53.3842283],[-6.2577071,53.3842209],[-6.2577126,53.3842155],[-6.2577397,53.3842252]]]}},{"type":"Feature","id":"relation/13005753","properties":{"osmType":"relation","osmId":13005753,"name":"The U","ref":"KA","building":"university","levels":null,"note":"Student centre","kind":"building","campus":"glasnevin","centroid":[53.3851561,-6.2586268]},"geometry":{"type":"Polygon","coordinates":[[[-6.2579742,53.3851909],[-6.2579955,53.3851718],[-6.258068,53.385107],[-6.2581351,53.385123],[-6.258406,53.384859],[-6.2587359,53.3849742],[-6.2587399,53.385007],[-6.2587868,53.3850129],[-6.2588233,53.3850171],[-6.2588191,53.385031],[-6.2588392,53.3850334],[-6.2588633,53.3849942],[-6.2589116,53.3849974],[-6.2589156,53.3849823],[-6.2589223,53.3849574],[-6.2591651,53.3849726],[-6.2591626,53.3850011],[-6.259161,53.3850198],[-6.2591476,53.3851086],[-6.2591597,53.385139],[-6.2590692,53.3852223],[-6.2591071,53.3852459],[-6.2589782,53.3853698],[-6.2589178,53.3853468],[-6.2588754,53.3853997],[-6.2587896,53.3853717],[-6.2587395,53.385435],[-6.2587118,53.3854613],[-6.2586487,53.3854421],[-6.2586377,53.3853582],[-6.2585964,53.3853574],[-6.2585522,53.3853565],[-6.2585227,53.3853781],[-6.2584932,53.3853813],[-6.258031,53.3852127],[-6.2579742,53.3851909]],[[-6.2588408,53.3853145],[-6.2589691,53.3851909],[-6.2588747,53.385156],[-6.2587463,53.3852796],[-6.2588408,53.3853145]]]}},{"type":"Feature","id":"relation/13005754","properties":{"osmType":"relation","osmId":13005754,"name":"Henry Grattan Building","ref":"C;CA","building":"university","levels":"3","note":"Humanities","kind":"building","campus":"glasnevin","centroid":[53.3860468,-6.2596837]},"geometry":{"type":"Polygon","coordinates":[[[-6.2596143,53.3858523],[-6.2597126,53.3858854],[-6.2597562,53.3858388],[-6.2597636,53.3858306],[-6.2605112,53.3860963],[-6.2605065,53.3861016],[-6.2605047,53.3861037],[-6.2604564,53.3861538],[-6.2605502,53.3861854],[-6.2603225,53.3864125],[-6.2603116,53.3864239],[-6.2603007,53.3864343],[-6.2601854,53.3865501],[-6.2599934,53.3864802],[-6.2600474,53.3864273],[-6.2598659,53.3863636],[-6.2598154,53.3864171],[-6.2596225,53.3863488],[-6.2596753,53.3862944],[-6.259494,53.3862296],[-6.2594401,53.3862841],[-6.2592496,53.3862139],[-6.2592884,53.3861743],[-6.2592744,53.3861693],[-6.2592612,53.3861643],[-6.259252,53.3861726],[-6.2592097,53.3861573],[-6.2592167,53.3861498],[-6.2592027,53.3861448],[-6.2591704,53.3861784],[-6.2588579,53.3860639],[-6.2587452,53.3860235],[-6.2587977,53.38597],[-6.2588486,53.385988],[-6.2588686,53.3859691],[-6.2589045,53.3859332],[-6.2589381,53.3858989],[-6.2589694,53.385867],[-6.2589073,53.3858423],[-6.2589731,53.385782],[-6.2590325,53.3858042],[-6.2590412,53.3857951],[-6.2589858,53.3857738],[-6.2590162,53.3857494],[-6.2590513,53.3857292],[-6.2591093,53.3857016],[-6.2592083,53.385684],[-6.2592692,53.3856833],[-6.2593278,53.3856896],[-6.259418,53.3857149],[-6.259438,53.3856951],[-6.2594147,53.3856877],[-6.2594306,53.3856727],[-6.2593894,53.3856579],[-6.2594202,53.3856371],[-6.2594556,53.38562],[-6.2594983,53.3856047],[-6.2596527,53.3856079],[-6.2596978,53.3855952],[-6.2598132,53.3856019],[-6.2598106,53.3856178],[-6.2599182,53.3856247],[-6.259955,53.3856369],[-6.2599823,53.3856542],[-6.2599937,53.385675],[-6.2599963,53.3857026],[-6.2598877,53.3856957],[-6.2598281,53.3857561],[-6.2597889,53.3857454],[-6.2597704,53.3857669],[-6.2597327,53.3857522],[-6.2597122,53.3857753],[-6.2596787,53.3857623],[-6.2596605,53.3857835],[-6.2596224,53.3857712],[-6.2596035,53.3857904],[-6.2595699,53.385779],[-6.2595434,53.3858059],[-6.2595289,53.3858218],[-6.259572,53.3858374],[-6.2596143,53.3858523]],[[-6.2597893,53.3861714],[-6.2598916,53.3860662],[-6.2597298,53.3860102],[-6.2596275,53.3861153],[-6.2597893,53.3861714]],[[-6.2601551,53.3863033],[-6.2602619,53.3861955],[-6.2600932,53.386136],[-6.2599864,53.3862438],[-6.2601551,53.3863033]],[[-6.2595829,53.3858836],[-6.2595407,53.3858682],[-6.259498,53.3858529],[-6.2593122,53.3860356],[-6.2593565,53.3860516],[-6.2593971,53.3860663],[-6.2595829,53.3858836]],[[-6.2592997,53.3861633],[-6.2593303,53.3861351],[-6.2593167,53.3861301],[-6.2593018,53.3861246],[-6.2592723,53.3861531],[-6.2592861,53.3861583],[-6.2592997,53.3861633]]]}},{"type":"Feature","id":"relation/18067171","properties":{"osmType":"relation","osmId":18067171,"name":"Drumcondra House","ref":"D","building":"university","levels":"3","note":null,"kind":"building","campus":"allhallows","centroid":[53.3712236,-6.2491888]},"geometry":{"type":"Polygon","coordinates":[[[-6.2489987,53.3712792],[-6.2489881,53.3712786],[-6.248994,53.3712384],[-6.2490437,53.3712417],[-6.2490533,53.3711741],[-6.2490263,53.3711724],[-6.2490399,53.3710436],[-6.2490705,53.3710446],[-6.249074,53.3709746],[-6.2492343,53.3709815],[-6.2493907,53.3709883],[-6.2493875,53.3710128],[-6.2493779,53.3710831],[-6.2493643,53.37117],[-6.2493038,53.3711671],[-6.2492956,53.3712075],[-6.2492223,53.3715694],[-6.2492121,53.3716197],[-6.2491422,53.3716162],[-6.2491612,53.3715229],[-6.2491425,53.3715213],[-6.2491402,53.3715294],[-6.2490272,53.3715196],[-6.2490466,53.3714314],[-6.2491575,53.3714401],[-6.2491557,53.3714484],[-6.249176,53.3714501],[-6.2492155,53.3712899],[-6.2489987,53.3712792]],[[-6.2492219,53.3712498],[-6.2492382,53.3711631],[-6.2492394,53.3711374],[-6.2491549,53.3711315],[-6.2491474,53.3711807],[-6.2492032,53.3711842],[-6.2491974,53.3712295],[-6.249164,53.371227],[-6.2491654,53.3712166],[-6.2491399,53.3712149],[-6.249135,53.371244],[-6.2492219,53.3712498]]]}},{"type":"Feature","id":"relation/18193748","properties":{"osmType":"relation","osmId":18193748,"name":"B Block","ref":"B","building":"university","levels":null,"note":null,"kind":"building","campus":"stpatricks","centroid":[53.3715985,-6.2557759]},"geometry":{"type":"Polygon","coordinates":[[[-6.2555995,53.3715957],[-6.2553345,53.3715405],[-6.2554072,53.3714119],[-6.2553515,53.3714005],[-6.2553847,53.3713439],[-6.2553918,53.3713317],[-6.2554911,53.3713525],[-6.2556018,53.3711643],[-6.2556519,53.3711744],[-6.2561219,53.3712724],[-6.2561757,53.3712839],[-6.2561324,53.3713568],[-6.2562166,53.3713743],[-6.2561999,53.3714028],[-6.2562544,53.3714141],[-6.256197,53.3715121],[-6.2561394,53.3715001],[-6.2560374,53.3716744],[-6.2560695,53.3716811],[-6.2560604,53.3716967],[-6.2561004,53.371705],[-6.2559436,53.3719731],[-6.2559217,53.3719686],[-6.2558505,53.3720904],[-6.2553233,53.3719806],[-6.2553516,53.3719323],[-6.2553182,53.3719253],[-6.2553415,53.3718881],[-6.2553761,53.3718262],[-6.2554109,53.3718335],[-6.2554644,53.3718446],[-6.2556127,53.3718755],[-6.2557572,53.3716285],[-6.2555995,53.3715957]],[[-6.2559086,53.3716362],[-6.2559489,53.3715665],[-6.2558713,53.3715505],[-6.255831,53.3716202],[-6.2559086,53.3716362]],[[-6.2555835,53.3715414],[-6.255611,53.3714958],[-6.2555406,53.3714807],[-6.255513,53.3715263],[-6.2555835,53.3715414]]]}},{"type":"Feature","id":"relation/18282532","properties":{"osmType":"relation","osmId":18282532,"name":"Polaris Building","ref":"FT","building":"university","levels":"5","note":null,"kind":"building","campus":"glasnevin","centroid":[53.3862844,-6.2560231]},"geometry":{"type":"Polygon","coordinates":[[[-6.2558555,53.3859993],[-6.2555297,53.3863213],[-6.2558679,53.386443],[-6.2558038,53.3865064],[-6.256089,53.3866091],[-6.2565273,53.3861761],[-6.2562421,53.3860734],[-6.2561938,53.3861211],[-6.2558555,53.3859993]],[[-6.2561102,53.3862037],[-6.2560484,53.3861811],[-6.2560029,53.3862254],[-6.2559681,53.3862126],[-6.2558911,53.3862876],[-6.2559891,53.3863233],[-6.2561102,53.3862037]]]}},{"type":"Feature","id":"relation/18292250","properties":{"osmType":"relation","osmId":18292250,"name":"D Block","ref":null,"building":"university","levels":"3","note":null,"kind":"building","campus":"stpatricks","centroid":[53.3716498,-6.255018]},"geometry":{"type":"Polygon","coordinates":[[[-6.2547551,53.3713216],[-6.2549175,53.3713557],[-6.254943,53.3713139],[-6.255028,53.3713319],[-6.2550542,53.3713375],[-6.2551361,53.3713548],[-6.2551437,53.371348],[-6.255154,53.371344],[-6.2551662,53.3713422],[-6.2551781,53.3713419],[-6.2551893,53.3713458],[-6.2551976,53.3713521],[-6.2552013,53.3713599],[-6.2551994,53.3713678],[-6.2553515,53.3714005],[-6.2554072,53.3714119],[-6.2553345,53.3715405],[-6.2555995,53.3715957],[-6.2555902,53.3716108],[-6.2556102,53.3716147],[-6.2556247,53.3716212],[-6.2556372,53.3716304],[-6.2556433,53.3716433],[-6.2556397,53.3716569],[-6.2556311,53.3716684],[-6.255614,53.3716772],[-6.2555938,53.3716804],[-6.2555746,53.3716806],[-6.2555549,53.3716771],[-6.2555486,53.3716878],[-6.2555237,53.371735],[-6.2555298,53.3717365],[-6.2555422,53.3717395],[-6.2555508,53.3717469],[-6.2555557,53.3717594],[-6.2555523,53.3717712],[-6.2555423,53.3717807],[-6.2555266,53.3717872],[-6.2555106,53.3717901],[-6.2554976,53.3717888],[-6.2554644,53.3718446],[-6.2554109,53.3718335],[-6.2553761,53.3718262],[-6.2553415,53.3718881],[-6.2552577,53.3718704],[-6.2551973,53.3718581],[-6.2551308,53.3719742],[-6.2546973,53.371882],[-6.254598,53.3718618],[-6.2544079,53.3718197],[-6.2544772,53.3716994],[-6.2544976,53.3717019],[-6.2545048,53.3716909],[-6.2545135,53.3716778],[-6.2545466,53.3716848],[-6.2547551,53.3713216]],[[-6.2553276,53.3714376],[-6.2550218,53.3713743],[-6.2548664,53.3716415],[-6.2551706,53.3717045],[-6.2552183,53.3716224],[-6.2552025,53.3716191],[-6.2552535,53.3715315],[-6.2552709,53.3715351],[-6.2553276,53.3714376]]]}},{"type":"Feature","id":"relation/19051530","properties":{"osmType":"relation","osmId":19051530,"name":"Hamilton Building","ref":"J","building":"university","levels":null,"note":"Research & Development","kind":"building","campus":"glasnevin","centroid":[53.3853847,-6.259596]},"geometry":{"type":"Polygon","coordinates":[[[-6.2598034,53.3855309],[-6.2594521,53.3855157],[-6.2594252,53.3855421],[-6.2593247,53.3855085],[-6.2593381,53.3854901],[-6.2592509,53.3854573],[-6.2592804,53.3852885],[-6.2593273,53.3852901],[-6.25933,53.3852765],[-6.2596506,53.3852909],[-6.2596613,53.3852341],[-6.2598128,53.3852405],[-6.2598128,53.3852541],[-6.2599429,53.3852605],[-6.2599349,53.3853669],[-6.259908,53.3854029],[-6.2598651,53.3854013],[-6.2598571,53.3854517],[-6.2598249,53.3854509],[-6.2598034,53.3855309]],[[-6.2597143,53.3854236],[-6.2593874,53.3854051],[-6.2593937,53.3853651],[-6.2597206,53.3853836],[-6.2597143,53.3854236]]]}},{"type":"Feature","id":"relation/5362126","properties":{"osmType":"relation","osmId":5362126,"name":"Purcell House - DCU","ref":"P","building":"university","levels":"3","note":"Contains both classrooms and accommodation.","kind":"building","campus":"allhallows","centroid":[53.3706752,-6.2498843]},"geometry":{"type":"Polygon","coordinates":[[[-6.249767,53.3709283],[-6.249692,53.3709069],[-6.2496605,53.3709462],[-6.2495685,53.3709197],[-6.2494478,53.3708854],[-6.2495063,53.3708125],[-6.2495469,53.3708241],[-6.2496468,53.3706995],[-6.2495972,53.3706854],[-6.2496207,53.3706561],[-6.2496509,53.3706185],[-6.2497005,53.3706327],[-6.2497971,53.3705123],[-6.2497688,53.3705042],[-6.249837,53.3704193],[-6.2501726,53.3705152],[-6.2501281,53.3705707],[-6.2502683,53.3706107],[-6.25029,53.3705836],[-6.2503255,53.3705937],[-6.2503037,53.3706208],[-6.2501889,53.3707639],[-6.2501522,53.3707535],[-6.2501385,53.3707705],[-6.2501,53.3707595],[-6.250088,53.3707744],[-6.250048,53.3707629],[-6.250037,53.3707766],[-6.2499387,53.3707485],[-6.2499283,53.3707615],[-6.2498862,53.3707495],[-6.24988,53.3707517],[-6.2498481,53.3707544],[-6.2498181,53.3707499],[-6.2497112,53.370883],[-6.2497862,53.3709044],[-6.249767,53.3709283]],[[-6.2499693,53.3705615],[-6.2499151,53.370629],[-6.2499888,53.3706501],[-6.250043,53.3705826],[-6.2499693,53.3705615]]]}},{"type":"Feature","id":"relation/5367251","properties":{"osmType":"relation","osmId":5367251,"name":"F Block","ref":"F","building":"university","levels":"4","note":null,"kind":"building","campus":"stpatricks","centroid":[53.3721792,-6.254637]},"geometry":{"type":"Polygon","coordinates":[[[-6.2548422,53.372479],[-6.2547333,53.3724578],[-6.2547001,53.3725145],[-6.2546909,53.3725195],[-6.2546796,53.3725224],[-6.2546685,53.3725234],[-6.2546553,53.3725226],[-6.254643,53.372518],[-6.2546326,53.3725121],[-6.2546277,53.3725044],[-6.2546276,53.3724974],[-6.2546584,53.3724429],[-6.2541671,53.3723397],[-6.2542164,53.3722572],[-6.2543359,53.3720546],[-6.2543507,53.3720275],[-6.2544101,53.3719246],[-6.2544896,53.3719399],[-6.2545314,53.3719479],[-6.2545529,53.3719082],[-6.2545566,53.3719034],[-6.2545625,53.3719],[-6.2545692,53.3718989],[-6.2545785,53.3718991],[-6.254598,53.3718618],[-6.2546973,53.371882],[-6.254684,53.3719047],[-6.2547604,53.3719206],[-6.2547546,53.3719304],[-6.2548939,53.3719599],[-6.2548745,53.3719925],[-6.2548811,53.3719945],[-6.2548851,53.371998],[-6.2548859,53.3720013],[-6.2548849,53.3720055],[-6.2548782,53.3720166],[-6.2549144,53.3720237],[-6.2549461,53.3719665],[-6.2549562,53.3719587],[-6.2549653,53.371955],[-6.2549762,53.3719532],[-6.2549908,53.3719537],[-6.2550013,53.3719582],[-6.2550073,53.371964],[-6.2550128,53.3719712],[-6.2550125,53.3719791],[-6.254978,53.3720383],[-6.2550811,53.3720612],[-6.2548842,53.3724054],[-6.2548422,53.372479]],[[-6.2547604,53.3721569],[-6.2546929,53.3722739],[-6.2545233,53.3722362],[-6.2545424,53.3722036],[-6.2545826,53.3722119],[-6.2545748,53.3722283],[-6.2546551,53.3722365],[-6.2546804,53.3721514],[-6.2545839,53.3721306],[-6.2545914,53.3721183],[-6.2547604,53.3721569]]]}},{"type":"Feature","id":"relation/5369981","properties":{"osmType":"relation","osmId":5369981,"name":"St. Patrick's Boys National School","ref":null,"building":"school","levels":"2","note":null,"kind":"building","campus":"stpatricks","centroid":[53.3695041,-6.2552048]},"geometry":{"type":"Polygon","coordinates":[[[-6.2550557,53.3697933],[-6.2549872,53.3697791],[-6.2549755,53.3697607],[-6.2548654,53.3697365],[-6.2549239,53.3696418],[-6.2550332,53.3696658],[-6.2550469,53.3696437],[-6.2548684,53.3696044],[-6.2550227,53.3693545],[-6.2551432,53.369381],[-6.255155,53.3693619],[-6.2551899,53.3693695],[-6.2552006,53.3693522],[-6.2551848,53.3693489],[-6.2551732,53.3693303],[-6.2551904,53.369304],[-6.2551458,53.3692942],[-6.255201,53.3692048],[-6.2552393,53.3691957],[-6.2552542,53.3691989],[-6.2552582,53.3691925],[-6.2552942,53.3691828],[-6.2554827,53.3692242],[-6.2554995,53.369246],[-6.2554957,53.369252],[-6.2555091,53.369255],[-6.255529,53.3692791],[-6.255475,53.3693666],[-6.2554109,53.3693525],[-6.2553883,53.3693892],[-6.2554054,53.369393],[-6.2554151,53.3694115],[-6.2553992,53.3694373],[-6.2554341,53.369445],[-6.2555075,53.3694611],[-6.2553532,53.369711],[-6.2551502,53.3696664],[-6.2551365,53.3696885],[-6.2552737,53.3697307],[-6.2552144,53.3698147],[-6.2550847,53.3697847],[-6.2550557,53.3697933]],[[-6.2551283,53.3694679],[-6.2553039,53.3695043],[-6.2552439,53.3696074],[-6.2550683,53.369571],[-6.2551283,53.3694679]],[[-6.2553476,53.3694453],[-6.2552937,53.3694341],[-6.2553102,53.3694058],[-6.2553641,53.369417],[-6.2553476,53.3694453]]]}},{"type":"Feature","id":"way/1316674032","properties":{"osmType":"way","osmId":1316674032,"name":"Dunboyne Wing","ref":"D","building":"university","levels":"3","note":null,"kind":"building","campus":"allhallows","centroid":[53.3711061,-6.2496178]},"geometry":{"type":"Polygon","coordinates":[[[-6.2493779,53.3710831],[-6.2493875,53.3710128],[-6.2494027,53.3710138],[-6.2497533,53.3710381],[-6.2497651,53.3709962],[-6.2498356,53.3710116],[-6.2498025,53.3710779],[-6.2497574,53.3710734],[-6.2497516,53.3711091],[-6.2497174,53.3712184],[-6.249585,53.3712057],[-6.2496126,53.3711007],[-6.2495763,53.3710976],[-6.2495695,53.3711324],[-6.2494743,53.3711253],[-6.2494815,53.3710913],[-6.2493779,53.3710831]]]}},{"type":"Feature","id":"way/1316674035","properties":{"osmType":"way","osmId":1316674035,"name":"College Chapel","ref":"C","building":"chapel","levels":null,"note":"Has been assigned the room number CG01","kind":"building","campus":"allhallows","centroid":[53.3714168,-6.2488305]},"geometry":{"type":"Polygon","coordinates":[[[-6.248994,53.3712384],[-6.2489942,53.3712368],[-6.2489513,53.3712341],[-6.2489521,53.3712254],[-6.2489456,53.3712251],[-6.2489308,53.3712152],[-6.2489134,53.3712145],[-6.2489009,53.371221],[-6.2488417,53.3712179],[-6.2487861,53.3712149],[-6.2487722,53.3712062],[-6.2487535,53.3712051],[-6.2487388,53.3712126],[-6.2487376,53.371224],[-6.2487492,53.371231],[-6.2487067,53.3714669],[-6.2486165,53.3714636],[-6.2486105,53.3715374],[-6.2486326,53.3715392],[-6.2486293,53.3715612],[-6.2486904,53.371565],[-6.2486867,53.3715874],[-6.248707,53.3716145],[-6.2487464,53.3716325],[-6.2487943,53.3716359],[-6.2488412,53.371623],[-6.2488675,53.3716022],[-6.2488712,53.3715835],[-6.2489445,53.3715887],[-6.24895,53.3715586],[-6.2489612,53.3715594],[-6.2490029,53.3713447],[-6.2489882,53.3713437],[-6.2489987,53.3712792],[-6.2489881,53.3712786],[-6.248994,53.3712384]]]}},{"type":"Feature","id":"way/1316674036","properties":{"osmType":"way","osmId":1316674036,"name":"Main Restaurant","ref":null,"building":"university","levels":"1","note":null,"kind":"building","campus":"allhallows","centroid":[53.3716056,-6.2495561]},"geometry":{"type":"Polygon","coordinates":[[[-6.2492121,53.3716197],[-6.2493776,53.3716279],[-6.2493747,53.3716449],[-6.2494675,53.3716513],[-6.2494524,53.3717398],[-6.2499111,53.3717679],[-6.2499162,53.3717238],[-6.249841,53.37172],[-6.2498489,53.3716723],[-6.2498509,53.3716601],[-6.249637,53.3716464],[-6.2496807,53.3714403],[-6.2495941,53.3714343],[-6.2496008,53.3714039],[-6.2494575,53.3713921],[-6.2494492,53.3714256],[-6.2493808,53.371421],[-6.2493519,53.3715745],[-6.2492223,53.3715694],[-6.2492121,53.3716197]]]}},{"type":"Feature","id":"way/1316674039","properties":{"osmType":"way","osmId":1316674039,"name":"Senior House","ref":"S","building":"university","levels":"3","note":null,"kind":"building","campus":"allhallows","centroid":[53.3720347,-6.2490827]},"geometry":{"type":"Polygon","coordinates":[[[-6.2492121,53.3716197],[-6.2491422,53.3716162],[-6.2491298,53.3716156],[-6.2491253,53.3716407],[-6.2490833,53.3718763],[-6.2490383,53.3721287],[-6.2482104,53.3720772],[-6.2481912,53.3721894],[-6.249023,53.3722408],[-6.2490215,53.3722719],[-6.2490842,53.3722792],[-6.2490698,53.3723706],[-6.2492596,53.3723813],[-6.2492707,53.372304],[-6.2491518,53.3722972],[-6.2491601,53.3722525],[-6.2492692,53.3722585],[-6.2492837,53.3721826],[-6.2492648,53.3721813],[-6.2493026,53.3720028],[-6.2493162,53.3720039],[-6.2493199,53.3719825],[-6.249393,53.3719883],[-6.2493884,53.3720213],[-6.249792,53.3720484],[-6.2498186,53.3719],[-6.2497332,53.3718945],[-6.2497253,53.3719413],[-6.2494028,53.3719209],[-6.2493984,53.371952],[-6.2493284,53.3719464],[-6.2493306,53.3719315],[-6.2493157,53.3719301],[-6.2493679,53.3716763],[-6.2493747,53.3716449],[-6.2493776,53.3716279],[-6.2492121,53.3716197]]]}},{"type":"Feature","id":"way/1316684359","properties":{"osmType":"way","osmId":1316684359,"name":"Estates Office","ref":"E","building":"university","levels":"2","note":null,"kind":"building","campus":"glasnevin","centroid":[53.3870851,-6.25837]},"geometry":{"type":"Polygon","coordinates":[[[-6.2585343,53.3872309],[-6.2586341,53.3871359],[-6.2583817,53.3870415],[-6.2583258,53.3870946],[-6.2582982,53.3870843],[-6.2583534,53.3870315],[-6.2582054,53.3869765],[-6.2581063,53.3870712],[-6.2582544,53.3871263],[-6.2582676,53.3871136],[-6.2582951,53.3871238],[-6.2582818,53.3871365],[-6.2585343,53.3872309]]]}},{"type":"Feature","id":"way/132281161","properties":{"osmType":"way","osmId":132281161,"name":"Sports Building","ref":"S","building":"university","levels":null,"note":null,"kind":"building","campus":"stpatricks","centroid":[53.3708725,-6.256606]},"geometry":{"type":"Polygon","coordinates":[[[-6.2565542,53.3712466],[-6.2567336,53.3709369],[-6.256751,53.3709405],[-6.2569775,53.3705494],[-6.256669,53.3704858],[-6.2564363,53.3708875],[-6.2564009,53.3708802],[-6.2562277,53.3711792],[-6.2563432,53.3712031],[-6.2565542,53.3712466]]]}},{"type":"Feature","id":"way/132281162","properties":{"osmType":"way","osmId":132281162,"name":"Drumcondra Education Centre","ref":null,"building":"yes","levels":null,"note":null,"kind":"building","campus":"stpatricks","centroid":[53.3702201,-6.254717]},"geometry":{"type":"Polygon","coordinates":[[[-6.2545662,53.3702824],[-6.2545901,53.3702839],[-6.2545856,53.3703095],[-6.2547259,53.3703184],[-6.2547248,53.3703244],[-6.2548413,53.3703318],[-6.2548505,53.3702803],[-6.2548293,53.370279],[-6.2548582,53.3701173],[-6.2548254,53.3701152],[-6.254829,53.3700948],[-6.254629,53.370082],[-6.2546254,53.3701025],[-6.2545986,53.3701008],[-6.2545662,53.3702824]]]}},{"type":"Feature","id":"way/132281166","properties":{"osmType":"way","osmId":132281166,"name":"A Block","ref":"A","building":"university","levels":"1","note":null,"kind":"building","campus":"stpatricks","centroid":[53.3708161,-6.2556204]},"geometry":{"type":"Polygon","coordinates":[[[-6.2556519,53.3711744],[-6.2558034,53.3709223],[-6.2558816,53.3707908],[-6.2558949,53.3707965],[-6.255908,53.3707988],[-6.2559237,53.3707972],[-6.2559291,53.3707853],[-6.2559177,53.3707793],[-6.255906,53.3707771],[-6.2558893,53.3707777],[-6.2559193,53.3707275],[-6.2558666,53.370716],[-6.2558222,53.3707068],[-6.255834,53.3706892],[-6.2558357,53.3706823],[-6.2558328,53.3706755],[-6.2558257,53.3706699],[-6.2558157,53.3706664],[-6.2558041,53.3706654],[-6.2557927,53.3706671],[-6.2557834,53.3706713],[-6.2557774,53.3706773],[-6.2557791,53.3706704],[-6.2557762,53.3706636],[-6.2557692,53.370658],[-6.2557591,53.3706545],[-6.2557475,53.3706535],[-6.2557362,53.3706552],[-6.2557268,53.3706594],[-6.2557208,53.3706654],[-6.2557225,53.3706585],[-6.2557196,53.3706517],[-6.2557126,53.3706461],[-6.2557025,53.3706426],[-6.2556909,53.3706416],[-6.2556796,53.3706433],[-6.2556702,53.3706475],[-6.2556642,53.3706535],[-6.2556659,53.3706466],[-6.255663,53.3706398],[-6.255656,53.3706343],[-6.2556459,53.3706307],[-6.2556343,53.3706297],[-6.255623,53.3706314],[-6.2556136,53.3706356],[-6.2556076,53.3706416],[-6.2556093,53.3706347],[-6.2556064,53.370628],[-6.2555994,53.3706224],[-6.2555893,53.3706188],[-6.2555777,53.3706178],[-6.2555664,53.3706196],[-6.255557,53.3706237],[-6.255551,53.3706298],[-6.2555527,53.3706228],[-6.2555498,53.3706161],[-6.2555428,53.3706105],[-6.2555327,53.3706069],[-6.2555211,53.3706059],[-6.2555098,53.3706077],[-6.2555004,53.3706119],[-6.2554944,53.3706179],[-6.2554835,53.3706365],[-6.255434,53.3706322],[-6.2553855,53.3706396],[-6.2553455,53.3706575],[-6.2553359,53.3706672],[-6.2552989,53.3706594],[-6.2552791,53.3706931],[-6.2553158,53.3707008],[-6.255313,53.3707127],[-6.2553254,53.3707416],[-6.2553554,53.3707655],[-6.2553995,53.3707821],[-6.2553713,53.3708301],[-6.2556363,53.3708854],[-6.2554876,53.3711404],[-6.2556018,53.3711643],[-6.2556519,53.3711744]]]}},{"type":"Feature","id":"way/132297259","properties":{"osmType":"way","osmId":132297259,"name":"Educational Research Centre","ref":null,"building":"yes","levels":null,"note":null,"kind":"building","campus":"stpatricks","centroid":[53.3699943,-6.257453]},"geometry":{"type":"Polygon","coordinates":[[[-6.2573968,53.3699328],[-6.2574972,53.3699424],[-6.2575282,53.3698266],[-6.2577173,53.3698447],[-6.2576351,53.3701511],[-6.2573603,53.3701248],[-6.257333,53.3701392],[-6.2571595,53.3701226],[-6.2571837,53.3700325],[-6.2572471,53.3700386],[-6.2572598,53.3699913],[-6.2572848,53.3699937],[-6.2572931,53.3699629],[-6.2573063,53.3699642],[-6.2573143,53.369934],[-6.2572611,53.369929],[-6.2572095,53.3698922],[-6.2572133,53.369878],[-6.2572733,53.3698838],[-6.2572761,53.369873],[-6.2572614,53.3698716],[-6.2572709,53.3698361],[-6.2572857,53.3698375],[-6.2572974,53.3697937],[-6.2574306,53.3698065],[-6.2574213,53.3698411],[-6.2574365,53.3698426],[-6.2574283,53.3698734],[-6.2574425,53.3698748],[-6.2574327,53.369911],[-6.2574033,53.3699082],[-6.2573968,53.3699328]]]}},{"type":"Feature","id":"way/1324964170","properties":{"osmType":"way","osmId":1324964170,"name":null,"ref":null,"building":"school","levels":"1","note":null,"kind":"building","campus":"allhallows","centroid":[53.3714076,-6.2481019]},"geometry":{"type":"Polygon","coordinates":[[[-6.2481496,53.3715268],[-6.2481055,53.3715237],[-6.2480906,53.371599],[-6.2481347,53.3716021],[-6.2481496,53.3715268]]]}},{"type":"Feature","id":"way/1324964171","properties":{"osmType":"way","osmId":1324964171,"name":null,"ref":null,"building":"school","levels":"1","note":null,"kind":"building","campus":"allhallows","centroid":[53.371509,-6.2480701]},"geometry":{"type":"Polygon","coordinates":[[[-6.2481055,53.3715237],[-6.2480615,53.3715207],[-6.2480467,53.3715959],[-6.2480906,53.371599],[-6.2481055,53.3715237]]]}},{"type":"Feature","id":"way/1324964172","properties":{"osmType":"way","osmId":1324964172,"name":null,"ref":null,"building":"school","levels":"1","note":null,"kind":"building","campus":"allhallows","centroid":[53.3714299,-6.2479741]},"geometry":{"type":"Polygon","coordinates":[[[-6.2480051,53.3715938],[-6.2480175,53.3715169],[-6.2479721,53.3715143],[-6.2479597,53.3715912],[-6.2480051,53.3715938]]]}},{"type":"Feature","id":"way/1324964173","properties":{"osmType":"way","osmId":1324964173,"name":null,"ref":null,"building":"school","levels":"1","note":null,"kind":"building","campus":"allhallows","centroid":[53.371569,-6.2479149]},"geometry":{"type":"Polygon","coordinates":[[[-6.2479395,53.3715114],[-6.2478931,53.3715098],[-6.2478857,53.3715874],[-6.247932,53.371589],[-6.2479395,53.3715114]]]}},{"type":"Feature","id":"way/1324964174","properties":{"osmType":"way","osmId":1324964174,"name":null,"ref":null,"building":"school","levels":"1","note":null,"kind":"building","campus":"allhallows","centroid":[53.3713116,-6.2476983]},"geometry":{"type":"Polygon","coordinates":[[[-6.2477947,53.3716197],[-6.247804,53.3715917],[-6.247669,53.3715758],[-6.2476597,53.3716039],[-6.2477947,53.3716197]]]}},{"type":"Feature","id":"way/1324964175","properties":{"osmType":"way","osmId":1324964175,"name":null,"ref":null,"building":"school","levels":"1","note":null,"kind":"building","campus":"allhallows","centroid":[53.3715301,-6.2477913]},"geometry":{"type":"Polygon","coordinates":[[[-6.2478364,53.3714601],[-6.2477747,53.3714535],[-6.2477419,53.3715626],[-6.2478036,53.3715692],[-6.2478364,53.3714601]]]}},{"type":"Feature","id":"way/1324964176","properties":{"osmType":"way","osmId":1324964176,"name":null,"ref":null,"building":"school","levels":"1","note":null,"kind":"building","campus":"allhallows","centroid":[53.371555,-6.2477351]},"geometry":{"type":"Polygon","coordinates":[[[-6.2477419,53.3715626],[-6.2476838,53.3715564],[-6.2477165,53.3714473],[-6.2477747,53.3714535],[-6.2477419,53.3715626]]]}},{"type":"Feature","id":"way/1324964177","properties":{"osmType":"way","osmId":1324964177,"name":null,"ref":null,"building":"school","levels":"1","note":null,"kind":"building","campus":"allhallows","centroid":[53.3713527,-6.247804]},"geometry":{"type":"Polygon","coordinates":[[[-6.2478299,53.3714463],[-6.247845,53.3713913],[-6.2477939,53.3713864],[-6.2477773,53.3714411],[-6.2478299,53.3714463]]]}},{"type":"Feature","id":"way/1324964178","properties":{"osmType":"way","osmId":1324964178,"name":null,"ref":null,"building":"school","levels":"1","note":null,"kind":"building","campus":"allhallows","centroid":[53.3714515,-6.2477691]},"geometry":{"type":"Polygon","coordinates":[[[-6.2477773,53.3714411],[-6.2477766,53.3714435],[-6.2477128,53.3714366],[-6.2477461,53.371327],[-6.2478099,53.3713339],[-6.2477939,53.3713864],[-6.2477773,53.3714411]]]}},{"type":"Feature","id":"way/1324964179","properties":{"osmType":"way","osmId":1324964179,"name":null,"ref":null,"building":"school","levels":"1","note":null,"kind":"building","campus":"allhallows","centroid":[53.3712111,-6.2477889]},"geometry":{"type":"Polygon","coordinates":[[[-6.2478109,53.371325],[-6.2478267,53.3712703],[-6.2478425,53.3712158],[-6.2477801,53.3712094],[-6.2477485,53.3713186],[-6.2478109,53.371325]]]}},{"type":"Feature","id":"way/1324964180","properties":{"osmType":"way","osmId":1324964180,"name":null,"ref":null,"building":"school","levels":"1","note":null,"kind":"building","campus":"allhallows","centroid":[53.3712541,-6.2478618]},"geometry":{"type":"Polygon","coordinates":[[[-6.2478425,53.3712158],[-6.2478946,53.3712213],[-6.2478796,53.3712755],[-6.2478267,53.3712703],[-6.2478425,53.3712158]]]}},{"type":"Feature","id":"way/1324964181","properties":{"osmType":"way","osmId":1324964181,"name":null,"ref":null,"building":"school","levels":"1","note":null,"kind":"building","campus":"allhallows","centroid":[53.3712599,-6.2476557]},"geometry":{"type":"Polygon","coordinates":[[[-6.2476737,53.3712761],[-6.247695,53.3712013],[-6.2476321,53.3711949],[-6.2476107,53.3712697],[-6.2476578,53.3712742],[-6.2476737,53.3712761]]]}},{"type":"Feature","id":"way/1324964182","properties":{"osmType":"way","osmId":1324964182,"name":null,"ref":null,"building":"school","levels":"1","note":null,"kind":"building","campus":"allhallows","centroid":[53.3713333,-6.2476238]},"geometry":{"type":"Polygon","coordinates":[[[-6.2476578,53.3712742],[-6.2476337,53.3713653],[-6.247586,53.3713612],[-6.2476107,53.3712697],[-6.2476578,53.3712742]]]}},{"type":"Feature","id":"way/1324964183","properties":{"osmType":"way","osmId":1324964183,"name":null,"ref":null,"building":"school","levels":"1","note":null,"kind":"building","campus":"allhallows","centroid":[53.3713783,-6.247554]},"geometry":{"type":"Polygon","coordinates":[[[-6.2476337,53.3713653],[-6.2476268,53.371394],[-6.2475971,53.3713915],[-6.2475068,53.3713841],[-6.2474733,53.3713809],[-6.2474802,53.3713522],[-6.247586,53.3713612],[-6.2476337,53.3713653]]]}},{"type":"Feature","id":"way/1324964184","properties":{"osmType":"way","osmId":1324964184,"name":null,"ref":null,"building":"school","levels":"1","note":null,"kind":"building","campus":"allhallows","centroid":[53.3714351,-6.2475526]},"geometry":{"type":"Polygon","coordinates":[[[-6.2475971,53.3713915],[-6.2475906,53.3714197],[-6.2475002,53.3714122],[-6.2475068,53.3713841],[-6.2475971,53.3713915]]]}},{"type":"Feature","id":"way/1324964185","properties":{"osmType":"way","osmId":1324964185,"name":null,"ref":null,"building":"school","levels":"1","note":null,"kind":"building","campus":"allhallows","centroid":[53.3712476,-6.2477096]},"geometry":{"type":"Polygon","coordinates":[[[-6.2476737,53.3712761],[-6.2476648,53.3713123],[-6.2477279,53.3713183],[-6.2477575,53.3712076],[-6.247695,53.3712013],[-6.2476737,53.3712761]]]}},{"type":"Feature","id":"way/1324964186","properties":{"osmType":"way","osmId":1324964186,"name":null,"ref":null,"building":"school","levels":"1","note":null,"kind":"building","campus":"allhallows","centroid":[53.371339,-6.247677]},"geometry":{"type":"Polygon","coordinates":[[[-6.2477279,53.3713183],[-6.2476961,53.3714282],[-6.2476517,53.3714236],[-6.2476336,53.3714217],[-6.2476648,53.3713123],[-6.2477279,53.3713183]]]}},{"type":"Feature","id":"way/1324964187","properties":{"osmType":"way","osmId":1324964187,"name":null,"ref":null,"building":"school","levels":"1","note":null,"kind":"building","campus":"allhallows","centroid":[53.3714289,-6.2476687]},"geometry":{"type":"Polygon","coordinates":[[[-6.2476961,53.3714282],[-6.247688,53.3714556],[-6.2476441,53.3714513],[-6.2476517,53.3714236],[-6.2476961,53.3714282]]]}},{"type":"Feature","id":"way/1324964188","properties":{"osmType":"way","osmId":1324964188,"name":null,"ref":null,"building":"school","levels":"1","note":null,"kind":"building","campus":"allhallows","centroid":[53.3714844,-6.2476326]},"geometry":{"type":"Polygon","coordinates":[[[-6.2476441,53.3714513],[-6.2476021,53.3714473],[-6.2476097,53.3714194],[-6.2476336,53.3714217],[-6.2476517,53.3714236],[-6.2476441,53.3714513]]]}},{"type":"Feature","id":"way/132934000","properties":{"osmType":"way","osmId":132934000,"name":"An Grianán","ref":null,"building":"house","levels":null,"note":"Residence of the President of DCU","kind":"building","campus":"glasnevin","centroid":[53.385838,-6.262147]},"geometry":{"type":"Polygon","coordinates":[[[-6.2622278,53.3859604],[-6.2622516,53.3857195],[-6.2620764,53.3857133],[-6.262067,53.3858088],[-6.2620059,53.3858067],[-6.2619999,53.3858665],[-6.2620875,53.3858696],[-6.2620791,53.3859551],[-6.2622278,53.3859604]]]}},{"type":"Feature","id":"way/132970325","properties":{"osmType":"way","osmId":132970325,"name":"Invent","ref":"B","building":"university","levels":null,"note":null,"kind":"building","campus":"glasnevin","centroid":[53.3847359,-6.2534518]},"geometry":{"type":"Polygon","coordinates":[[[-6.2537243,53.3847988],[-6.2534733,53.3846563],[-6.2534974,53.3846252],[-6.2534545,53.38461],[-6.2534668,53.3845976],[-6.2533524,53.3845558],[-6.2533401,53.384567],[-6.253254,53.3845302],[-6.2532013,53.3846272],[-6.2532508,53.3846525],[-6.253192,53.3847112],[-6.2536684,53.3848911],[-6.2536849,53.3848735],[-6.2537125,53.3848857],[-6.2537665,53.3848473],[-6.2537575,53.3848251],[-6.2537243,53.3847988]]]}},{"type":"Feature","id":"way/136325924","properties":{"osmType":"way","osmId":136325924,"name":"National Institute of Cellular Biology","ref":"G","building":"university","levels":null,"note":null,"kind":"building","campus":"glasnevin","centroid":[53.3851559,-6.2541962]},"geometry":{"type":"Polygon","coordinates":[[[-6.2543987,53.3853515],[-6.2545593,53.3852009],[-6.254452,53.3851602],[-6.2544825,53.3851316],[-6.2540776,53.384978],[-6.2540471,53.3850067],[-6.2539751,53.3849794],[-6.2538145,53.38513],[-6.2543987,53.3853515]]]}},{"type":"Feature","id":"way/1388068586","properties":{"osmType":"way","osmId":1388068586,"name":null,"ref":null,"building":"roof","levels":null,"note":null,"kind":"building","campus":"stpatricks","centroid":[53.3711634,-6.2562058]},"geometry":{"type":"Polygon","coordinates":[[[-6.2563432,53.3712031],[-6.2563285,53.3712277],[-6.2562227,53.3712052],[-6.2561757,53.3712839],[-6.2561219,53.3712724],[-6.2561835,53.3711693],[-6.2562277,53.3711792],[-6.2563432,53.3712031]]]}},{"type":"Feature","id":"way/1388068587","properties":{"osmType":"way","osmId":1388068587,"name":null,"ref":null,"building":"shed","levels":null,"note":null,"kind":"building","campus":"stpatricks","centroid":[53.3712974,-6.2562171]},"geometry":{"type":"Polygon","coordinates":[[[-6.2561568,53.3713291],[-6.256209,53.3712407],[-6.2562762,53.3712549],[-6.256224,53.3713432],[-6.2561568,53.3713291]]]}},{"type":"Feature","id":"way/1393773280","properties":{"osmType":"way","osmId":1393773280,"name":null,"ref":null,"building":"roof","levels":null,"note":null,"kind":"building","campus":"glasnevin","centroid":[53.3859004,-6.2569368]},"geometry":{"type":"Polygon","coordinates":[[[-6.2567612,53.385824],[-6.2570655,53.3859379],[-6.2571036,53.3859017],[-6.2567992,53.3857878],[-6.2567612,53.385824]]]}},{"type":"Feature","id":"way/141447789","properties":{"osmType":"way","osmId":141447789,"name":"McNulty Building","ref":"L","building":"university","levels":"3","note":"Computing","kind":"building","campus":"glasnevin","centroid":[53.3857214,-6.2576639]},"geometry":{"type":"Polygon","coordinates":[[[-6.2583592,53.38606],[-6.2580769,53.3859568],[-6.2576977,53.3858183],[-6.2576797,53.3858359],[-6.2569446,53.3855673],[-6.2569627,53.3855498],[-6.2568915,53.3855238],[-6.2568768,53.3855184],[-6.2570133,53.3853854],[-6.2570263,53.3853902],[-6.2570535,53.3854001],[-6.2577943,53.3856708],[-6.2581904,53.3858155],[-6.2584958,53.385927],[-6.2583592,53.38606]]]}},{"type":"Feature","id":"way/145705881","properties":{"osmType":"way","osmId":145705881,"name":"O'Donnell House","ref":"OD","building":"university","levels":null,"note":"Contains both classrooms and accommodation.","kind":"building","campus":"allhallows","centroid":[53.3712481,-6.2480907]},"geometry":{"type":"Polygon","coordinates":[[[-6.2481448,53.3714982],[-6.2479293,53.3714852],[-6.2479418,53.3714107],[-6.2479621,53.3714119],[-6.2480052,53.3711555],[-6.2479093,53.3711497],[-6.2479262,53.3710491],[-6.2483314,53.3710734],[-6.2483145,53.371174],[-6.2482005,53.3711672],[-6.2481949,53.371201],[-6.2481448,53.3714982]]]}},{"type":"Feature","id":"way/157475009","properties":{"osmType":"way","osmId":157475009,"name":"E Block","ref":"E","building":"university","levels":"3","note":null,"kind":"building","campus":"stpatricks","centroid":[53.372294,-6.2553884]},"geometry":{"type":"Polygon","coordinates":[[[-6.2548842,53.3724054],[-6.255687,53.3725689],[-6.2558209,53.3723348],[-6.2558892,53.3723487],[-6.2559175,53.3722994],[-6.2558501,53.3722856],[-6.2558975,53.3722028],[-6.2551541,53.3720513],[-6.2552577,53.3718704],[-6.2551973,53.3718581],[-6.2551308,53.3719742],[-6.2550811,53.3720612],[-6.2548842,53.3724054]]]}},{"type":"Feature","id":"way/170240389","properties":{"osmType":"way","osmId":170240389,"name":"DCU Sports Complex","ref":"U","building":"university","levels":null,"note":null,"kind":"building","campus":"glasnevin","centroid":[53.3847003,-6.2580198]},"geometry":{"type":"Polygon","coordinates":[[[-6.2579955,53.3851718],[-6.2579661,53.3851618],[-6.257942,53.3851817],[-6.257313,53.3849426],[-6.2574364,53.384821],[-6.2575115,53.3848466],[-6.2578642,53.3845082],[-6.2579023,53.3845175],[-6.2579338,53.3844874],[-6.2579723,53.3844527],[-6.2579341,53.384429],[-6.2580964,53.3842746],[-6.2581125,53.3842762],[-6.2581366,53.3842154],[-6.2581769,53.3841731],[-6.2582144,53.3841411],[-6.2582654,53.3841155],[-6.2583016,53.3841115],[-6.2583499,53.3841091],[-6.2584022,53.3841235],[-6.2584183,53.3841304],[-6.2584263,53.3841339],[-6.2584663,53.3841273],[-6.2583918,53.3844551],[-6.2583554,53.3846149],[-6.2585688,53.3846321],[-6.2585146,53.3847007],[-6.2584556,53.3847568],[-6.2584384,53.3847506],[-6.2579955,53.3851718]]]}},{"type":"Feature","id":"way/25019467","properties":{"osmType":"way","osmId":25019467,"name":"College Park Residences","ref":"W","building":"dormitory","levels":null,"note":"Houses 17-19","kind":"building","campus":"glasnevin","centroid":[53.3842129,-6.2585647]},"geometry":{"type":"Polygon","coordinates":[[[-6.2585688,53.3846321],[-6.258596,53.3845125],[-6.2586274,53.3843747],[-6.2586465,53.3843763],[-6.2586731,53.3842603],[-6.2586514,53.3842585],[-6.2586659,53.3841959],[-6.2586831,53.3841215],[-6.2587156,53.3841241],[-6.2587476,53.3839866],[-6.2587284,53.383985],[-6.2587644,53.3838319],[-6.2587114,53.3838275],[-6.2587236,53.3837756],[-6.2586006,53.3837653],[-6.2585873,53.3838218],[-6.258537,53.3838176],[-6.2585106,53.38393],[-6.258469,53.3841153],[-6.2584663,53.3841273],[-6.2583918,53.3844551],[-6.2583554,53.3846149],[-6.2585688,53.3846321]]]}},{"type":"Feature","id":"way/25160084","properties":{"osmType":"way","osmId":25160084,"name":"Alice Reeves Building","ref":"H","building":"university","levels":"4","note":"Health and Nursing","kind":"building","campus":"glasnevin","centroid":[53.3858111,-6.2546744]},"geometry":{"type":"Polygon","coordinates":[[[-6.2550659,53.3861418],[-6.2550517,53.3861366],[-6.2551451,53.386045],[-6.2550798,53.3860213],[-6.2551099,53.3859918],[-6.2552998,53.3858178],[-6.2550218,53.3857192],[-6.2550476,53.3856938],[-6.2548451,53.3856204],[-6.2548237,53.3856414],[-6.2548143,53.385638],[-6.2548037,53.3856341],[-6.2548554,53.3855834],[-6.2548068,53.3855557],[-6.2546189,53.3854976],[-6.2545742,53.3855414],[-6.2542595,53.3854272],[-6.2541006,53.3855831],[-6.2544209,53.3856993],[-6.2543899,53.3857297],[-6.2543342,53.3857095],[-6.2543129,53.3857303],[-6.2542192,53.3856963],[-6.2541142,53.3857993],[-6.2542133,53.3858352],[-6.2541517,53.3858956],[-6.2548182,53.3861374],[-6.2548068,53.3861486],[-6.2549908,53.3862154],[-6.2550659,53.3861418]]]}},{"type":"Feature","id":"way/264032369","properties":{"osmType":"way","osmId":264032369,"name":"College Park Residences","ref":"W","building":"dormitory","levels":"4","note":"House 14","kind":"building","campus":"glasnevin","centroid":[53.3832947,-6.2583049]},"geometry":{"type":"Polygon","coordinates":[[[-6.2582013,53.3831494],[-6.2582886,53.3831818],[-6.2582653,53.3832042],[-6.2584459,53.3832712],[-6.2584641,53.3832538],[-6.2585447,53.3832837],[-6.2584231,53.3833978],[-6.2583327,53.3833614],[-6.2583256,53.3833669],[-6.2582626,53.3833447],[-6.2582492,53.3833589],[-6.258242,53.3833657],[-6.2581957,53.3833481],[-6.2582177,53.3833275],[-6.2581713,53.3833098],[-6.2581798,53.3833018],[-6.2580794,53.3832637],[-6.2581915,53.3831588],[-6.2582013,53.3831494]]]}},{"type":"Feature","id":"way/266357827","properties":{"osmType":"way","osmId":266357827,"name":"Albert College","ref":"A","building":"university","levels":"3","note":null,"kind":"building","campus":"glasnevin","centroid":[53.3854614,-6.2606492]},"geometry":{"type":"Polygon","coordinates":[[[-6.2613816,53.3856215],[-6.2613737,53.3856761],[-6.2612416,53.3856692],[-6.2612637,53.3855178],[-6.2609774,53.3855025],[-6.2609618,53.3856058],[-6.2608181,53.3855981],[-6.2608321,53.3855046],[-6.2608005,53.3855035],[-6.2607682,53.3855012],[-6.2607642,53.3855215],[-6.2607289,53.3855194],[-6.260722,53.3855621],[-6.2605573,53.3855517],[-6.2601545,53.3855296],[-6.2601572,53.3855129],[-6.260111,53.3855098],[-6.2601195,53.385468],[-6.2601055,53.3854672],[-6.2600909,53.3854663],[-6.2600815,53.3855234],[-6.2600326,53.3855204],[-6.2600364,53.3855013],[-6.2600062,53.3854996],[-6.2599995,53.3855412],[-6.2599937,53.3855773],[-6.2598675,53.3855701],[-6.2598893,53.3854347],[-6.2599362,53.3854381],[-6.2599482,53.3853632],[-6.260291,53.3853828],[-6.2602946,53.3853601],[-6.2603084,53.3852727],[-6.2604393,53.38528],[-6.2604226,53.3853855],[-6.2605827,53.3853945],[-6.2607665,53.3854048],[-6.2607679,53.3853955],[-6.2608698,53.3854009],[-6.2609159,53.3854034],[-6.2609149,53.3854095],[-6.2612766,53.3854289],[-6.2612793,53.3854105],[-6.2612898,53.385339],[-6.2614119,53.3853453],[-6.2613989,53.3854347],[-6.2614073,53.3854351],[-6.2614031,53.3854637],[-6.2613995,53.3854888],[-6.2613913,53.3854883],[-6.2613719,53.385621],[-6.2613816,53.3856215]]]}},{"type":"Feature","id":"way/266357829","properties":{"osmType":"way","osmId":266357829,"name":"Postgraduate Residences B","ref":"VB","building":"dormitory","levels":"4","note":null,"kind":"building","campus":"glasnevin","centroid":[53.3851203,-6.2603994]},"geometry":{"type":"Polygon","coordinates":[[[-6.2605209,53.3852621],[-6.260077,53.3852373],[-6.2600904,53.3851678],[-6.2601454,53.3851693],[-6.2601521,53.3851094],[-6.260356,53.3851198],[-6.2603895,53.3849222],[-6.2604512,53.3849254],[-6.2604539,53.3849126],[-6.2605491,53.3849182],[-6.2605478,53.3849302],[-6.2606108,53.3849358],[-6.2605665,53.3852037],[-6.2605263,53.3852013],[-6.2605209,53.3852621]]]}},{"type":"Feature","id":"way/266357830","properties":{"osmType":"way","osmId":266357830,"name":"Postgraduate Residences A","ref":"VA","building":"dormitory","levels":"4","note":null,"kind":"building","campus":"glasnevin","centroid":[53.3851041,-6.259466]},"geometry":{"type":"Polygon","coordinates":[[[-6.2597281,53.3852223],[-6.2592922,53.3851975],[-6.2593029,53.3851368],[-6.2592654,53.3851344],[-6.2592976,53.3849352],[-6.2593539,53.3849384],[-6.2593579,53.3849264],[-6.2594343,53.3849304],[-6.2594317,53.3849416],[-6.2595108,53.3849456],[-6.259496,53.3850736],[-6.2596945,53.3850848],[-6.2596878,53.3851456],[-6.2597388,53.3851504],[-6.2597281,53.3852223]]]}},{"type":"Feature","id":"way/266357831","properties":{"osmType":"way","osmId":266357831,"name":"Bea Orpen Building","ref":"D","building":"university","levels":null,"note":null,"kind":"building","campus":"glasnevin","centroid":[53.3850776,-6.2599474]},"geometry":{"type":"Polygon","coordinates":[[[-6.2600609,53.3852365],[-6.2598249,53.3852237],[-6.2598464,53.3850814],[-6.259959,53.3850862],[-6.2599644,53.385063],[-6.259904,53.3850614],[-6.2599013,53.3850718],[-6.2597042,53.3850694],[-6.2597055,53.3849558],[-6.259896,53.3849582],[-6.2598973,53.3849502],[-6.259959,53.384951],[-6.2599617,53.384943],[-6.2600596,53.3849446],[-6.260065,53.3849542],[-6.260187,53.3849558],[-6.2601789,53.385047],[-6.2601226,53.3850646],[-6.2599845,53.3850662],[-6.2599805,53.3850878],[-6.2600837,53.385095],[-6.2600609,53.3852365]]]}},{"type":"Feature","id":"way/266357832","properties":{"osmType":"way","osmId":266357832,"name":"Main Restaurant","ref":"PR","building":"university","levels":null,"note":null,"kind":"building","campus":"glasnevin","centroid":[53.3857783,-6.2609212]},"geometry":{"type":"Polygon","coordinates":[[[-6.2609608,53.3859788],[-6.2605862,53.3859646],[-6.2605384,53.3859628],[-6.2604592,53.385902],[-6.260474,53.3857861],[-6.2605692,53.3857389],[-6.2606291,53.3857418],[-6.260769,53.3857485],[-6.2608103,53.3856229],[-6.2608181,53.3855981],[-6.2609618,53.3856058],[-6.2609774,53.3855025],[-6.2612637,53.3855178],[-6.2612416,53.3856692],[-6.2612384,53.3856845],[-6.2612237,53.3856917],[-6.2611137,53.3856861],[-6.261111,53.3857069],[-6.2613041,53.3857181],[-6.2612934,53.3857901],[-6.2610936,53.3857813],[-6.2610896,53.385818],[-6.2612679,53.3858284],[-6.2612599,53.385894],[-6.261229,53.3859132],[-6.2611834,53.3859196],[-6.2611352,53.3859188],[-6.2611217,53.3859844],[-6.2609608,53.3859788]]]}},{"type":"Feature","id":"way/266357833","properties":{"osmType":"way","osmId":266357833,"name":"Pavilion","ref":"P","building":"university","levels":null,"note":null,"kind":"building","campus":"glasnevin","centroid":[53.3860622,-6.2611172]},"geometry":{"type":"Polygon","coordinates":[[[-6.2612693,53.3861156],[-6.2609474,53.386098],[-6.2609487,53.3860724],[-6.2609876,53.3860764],[-6.2610037,53.3860636],[-6.2609286,53.3860564],[-6.2609152,53.386046],[-6.2609246,53.3860356],[-6.2609528,53.386034],[-6.2609552,53.3860172],[-6.2609608,53.3859788],[-6.2612867,53.385994],[-6.2612693,53.3861156]]]}},{"type":"Feature","id":"way/266357837","properties":{"osmType":"way","osmId":266357837,"name":"Mac Cormac Building","ref":"QA","building":"university","levels":"3","note":"Reception/offices","kind":"building","campus":"glasnevin","centroid":[53.3859491,-6.256834]},"geometry":{"type":"Polygon","coordinates":[[[-6.2570588,53.386061],[-6.2570313,53.386051],[-6.2569964,53.3860382],[-6.2569657,53.386068],[-6.2565947,53.3859321],[-6.2566268,53.385901],[-6.2565855,53.3858858],[-6.2566599,53.3858136],[-6.2570697,53.3859637],[-6.2570396,53.385993],[-6.2570774,53.3860069],[-6.2571042,53.3860167],[-6.2570588,53.386061]]]}},{"type":"Feature","id":"way/266357838","properties":{"osmType":"way","osmId":266357838,"name":"Marconi Building","ref":"N","building":"university","levels":"3","note":"Physics & Electronic Engineering","kind":"building","campus":"glasnevin","centroid":[53.3851931,-6.2562354]},"geometry":{"type":"Polygon","coordinates":[[[-6.2568768,53.3855184],[-6.2566914,53.3854507],[-6.2566431,53.385433],[-6.2560888,53.3852305],[-6.2560365,53.3852114],[-6.2555327,53.3850273],[-6.2554734,53.3850057],[-6.2554917,53.3849878],[-6.2555316,53.384949],[-6.2554869,53.3849327],[-6.2554458,53.3849177],[-6.2554648,53.3848992],[-6.2555054,53.3849141],[-6.2555414,53.3849272],[-6.2556008,53.3848694],[-6.2570133,53.3853854],[-6.2568768,53.3855184]]]}},{"type":"Feature","id":"way/266357839","properties":{"osmType":"way","osmId":266357839,"name":"Stokes Building","ref":"S;SA","building":"university","levels":null,"note":"Engineering & Research","kind":"building","campus":"glasnevin","centroid":[53.3855711,-6.2561158]},"geometry":{"type":"Polygon","coordinates":[[[-6.2562055,53.3858604],[-6.2557555,53.3856948],[-6.2554958,53.3855993],[-6.2555146,53.3855561],[-6.2554411,53.3855293],[-6.2555017,53.3854695],[-6.2555839,53.3854981],[-6.2557381,53.3853486],[-6.2556387,53.3853105],[-6.255659,53.3852899],[-6.2557166,53.3853078],[-6.2558279,53.3851966],[-6.2559862,53.385259],[-6.2560068,53.3852396],[-6.2560365,53.3852114],[-6.2560888,53.3852305],[-6.2560596,53.3852593],[-6.2560412,53.3852774],[-6.2561537,53.3853199],[-6.2562021,53.3853382],[-6.2561672,53.385371],[-6.2565287,53.3855068],[-6.2565995,53.385461],[-6.2566431,53.385433],[-6.2566914,53.3854507],[-6.2566426,53.3854771],[-6.2565568,53.3855228],[-6.2567697,53.3856002],[-6.2566675,53.3857029],[-6.2566802,53.3857076],[-6.2566467,53.3857388],[-6.2566599,53.385744],[-6.2564683,53.3859244],[-6.2562256,53.385842],[-6.2562055,53.3858604]]]}},{"type":"Feature","id":"way/266357840","properties":{"osmType":"way","osmId":266357840,"name":"BDI","ref":null,"building":"university","levels":null,"note":null,"kind":"building","campus":"glasnevin","centroid":[53.3854969,-6.2553528]},"geometry":{"type":"Polygon","coordinates":[[[-6.2554411,53.3855293],[-6.2553914,53.3855775],[-6.255179,53.3854997],[-6.2553093,53.3853732],[-6.2555209,53.3854504],[-6.2555017,53.3854695],[-6.2554411,53.3855293]]]}},{"type":"Feature","id":"way/266357841","properties":{"osmType":"way","osmId":266357841,"name":"Lonsdale Building","ref":"X","building":"university","levels":"3","note":"Science & Mathematics","kind":"building","campus":"glasnevin","centroid":[53.3849516,-6.2549236]},"geometry":{"type":"Polygon","coordinates":[[[-6.2555334,53.3854169],[-6.2552119,53.385299],[-6.2540635,53.3848778],[-6.2542267,53.3847121],[-6.2540492,53.3846445],[-6.2541033,53.3845936],[-6.2542376,53.3846455],[-6.2542697,53.3846137],[-6.2541337,53.3845628],[-6.2541802,53.384514],[-6.2543652,53.3845845],[-6.2543796,53.3845905],[-6.2543948,53.3845754],[-6.2545857,53.3846455],[-6.2545758,53.3846602],[-6.254889,53.3847745],[-6.2548983,53.3847634],[-6.2548518,53.3847478],[-6.2548776,53.384725],[-6.2549287,53.3847431],[-6.2549423,53.3847357],[-6.2549153,53.3847231],[-6.2548988,53.3847064],[-6.2548931,53.3846865],[-6.2548963,53.3846732],[-6.2549058,53.3846598],[-6.2549242,53.3846466],[-6.2549575,53.3846356],[-6.2549946,53.3846336],[-6.2550294,53.3846404],[-6.2550563,53.3846545],[-6.2550706,53.3846707],[-6.2550748,53.3846915],[-6.2550559,53.3847114],[-6.255085,53.3847225],[-6.2551149,53.3847338],[-6.2551551,53.3846949],[-6.2555334,53.3848346],[-6.2554648,53.3848992],[-6.2554458,53.3849177],[-6.25541,53.3849626],[-6.2554461,53.3849737],[-6.2554917,53.3849878],[-6.2554734,53.3850057],[-6.2555327,53.3850273],[-6.2555111,53.3850544],[-6.2554878,53.3850826],[-6.2557613,53.3851865],[-6.255659,53.3852899],[-6.2556387,53.3853105],[-6.2555334,53.3854169]]]}},{"type":"Feature","id":"way/266357845","properties":{"osmType":"way","osmId":266357845,"name":"Nano-Bioanalytical Research Facility","ref":"GA","building":"university","levels":null,"note":null,"kind":"building","campus":"glasnevin","centroid":[53.3855051,-6.253755]},"geometry":{"type":"Polygon","coordinates":[[[-6.2539497,53.3856993],[-6.2539242,53.3856898],[-6.2539122,53.3857012],[-6.2534923,53.3855444],[-6.2536317,53.3854115],[-6.2534945,53.3853603],[-6.2536164,53.3852441],[-6.2536607,53.3852606],[-6.2535651,53.3853517],[-6.2536175,53.3853713],[-6.253715,53.3852784],[-6.253951,53.3853665],[-6.2538334,53.3854786],[-6.2538116,53.3854704],[-6.2537788,53.3855017],[-6.2540506,53.3856031],[-6.2539497,53.3856993]]]}},{"type":"Feature","id":"way/327270633","properties":{"osmType":"way","osmId":327270633,"name":"Gatelodge","ref":null,"building":"university","levels":"2","note":null,"kind":"building","campus":"stpatricks","centroid":[53.3705071,-6.2542113]},"geometry":{"type":"Polygon","coordinates":[[[-6.25426,53.3705522],[-6.2542255,53.3705456],[-6.254217,53.3705614],[-6.2541246,53.3705436],[-6.2541791,53.3704425],[-6.2542586,53.3704577],[-6.2542519,53.3704702],[-6.2542994,53.3704793],[-6.25426,53.3705522]]]}},{"type":"Feature","id":"way/360158143","properties":{"osmType":"way","osmId":360158143,"name":"Gate Lodge","ref":null,"building":"house","levels":"1","note":null,"kind":"building","campus":"allhallows","centroid":[53.3701394,-6.2480229]},"geometry":{"type":"Polygon","coordinates":[[[-6.2479719,53.3701224],[-6.2480781,53.3701229],[-6.2480777,53.3701549],[-6.2481121,53.370155],[-6.2481114,53.3702074],[-6.248052,53.3702072],[-6.2480513,53.3702642],[-6.2479701,53.3702638],[-6.2479719,53.3701224]]]}},{"type":"Feature","id":"way/360286006","properties":{"osmType":"way","osmId":360286006,"name":null,"ref":null,"building":"university","levels":null,"note":null,"kind":"building","campus":"allhallows","centroid":[53.3715521,-6.2499092]},"geometry":{"type":"Polygon","coordinates":[[[-6.2498489,53.3716723],[-6.2498509,53.3716601],[-6.2498908,53.3714484],[-6.2499717,53.3714536],[-6.2499313,53.3716776],[-6.2498489,53.3716723]]]}},{"type":"Feature","id":"way/360485848","properties":{"osmType":"way","osmId":360485848,"name":"C Block","ref":"C","building":"university","levels":null,"note":null,"kind":"building","campus":"stpatricks","centroid":[53.3712311,-6.255197]},"geometry":{"type":"Polygon","coordinates":[[[-6.2553918,53.3713317],[-6.2553847,53.3713439],[-6.2553232,53.371331],[-6.2553322,53.3713157],[-6.2550961,53.3712662],[-6.2550542,53.3713375],[-6.255028,53.3713319],[-6.2550497,53.3712932],[-6.2550007,53.3712826],[-6.255021,53.3712472],[-6.2549861,53.3712399],[-6.254943,53.3713139],[-6.2549175,53.3713557],[-6.2547551,53.3713216],[-6.254734,53.3713169],[-6.2547383,53.3713095],[-6.2547315,53.3713015],[-6.2547369,53.3712917],[-6.254739,53.371288],[-6.2547531,53.371283],[-6.254771,53.3712461],[-6.2549171,53.3712745],[-6.2550026,53.3711176],[-6.2550643,53.3711001],[-6.2551155,53.3711136],[-6.2551353,53.3711478],[-6.2551505,53.3711518],[-6.2554443,53.371214],[-6.2554876,53.3711404],[-6.2556018,53.3711643],[-6.2554911,53.3713525],[-6.2553918,53.3713317]]]}},{"type":"Feature","id":"way/360511275","properties":{"osmType":"way","osmId":360511275,"name":"G Block - Cregan Library","ref":"G","building":"university","levels":"5","note":null,"kind":"building","campus":"stpatricks","centroid":[53.3720654,-6.2538363]},"geometry":{"type":"Polygon","coordinates":[[[-6.2543359,53.3720546],[-6.2541947,53.3720249],[-6.2534328,53.3718649],[-6.2533893,53.3719386],[-6.2533107,53.3719221],[-6.253289,53.3719588],[-6.2534505,53.3719927],[-6.253435,53.3720191],[-6.2534212,53.3720425],[-6.2533961,53.372085],[-6.2542164,53.3722572],[-6.2543359,53.3720546]]]}},{"type":"Feature","id":"way/360598732","properties":{"osmType":"way","osmId":360598732,"name":"Bangor - House 1","ref":"T1","building":"dormitory","levels":"3","note":null,"kind":"building","campus":"stpatricks","centroid":[53.3702561,-6.255709]},"geometry":{"type":"Polygon","coordinates":[[[-6.2558231,53.3702791],[-6.2557791,53.3704427],[-6.2556921,53.3704447],[-6.2556105,53.3704266],[-6.2556478,53.370288],[-6.2556407,53.3702286],[-6.2555411,53.3700859],[-6.2556374,53.3700705],[-6.2557021,53.3700519],[-6.2558019,53.3701948],[-6.2558128,53.3702132],[-6.2558689,53.3702237],[-6.2558739,53.3702641],[-6.2558231,53.3702791]]]}},{"type":"Feature","id":"way/360598733","properties":{"osmType":"way","osmId":360598733,"name":"Clonmacnoise - House 4","ref":"T4","building":"dormitory","levels":"3","note":null,"kind":"building","campus":"stpatricks","centroid":[53.3700925,-6.2565432]},"geometry":{"type":"Polygon","coordinates":[[[-6.2566185,53.3701516],[-6.2564445,53.3702808],[-6.2563672,53.3702568],[-6.2563113,53.3702169],[-6.2564587,53.3701075],[-6.2565019,53.3700538],[-6.2565432,53.3699165],[-6.2566303,53.3699155],[-6.2567192,53.3699329],[-6.2566636,53.3700851],[-6.2567042,53.3701169],[-6.2566752,53.3701535],[-6.2566185,53.3701516]]]}},{"type":"Feature","id":"way/360598734","properties":{"osmType":"way","osmId":360598734,"name":"Glendalough - House 2","ref":"T2","building":"dormitory","levels":"3","note":null,"kind":"building","campus":"stpatricks","centroid":[53.3698244,-6.255696]},"geometry":{"type":"Polygon","coordinates":[[[-6.2556223,53.3697796],[-6.2557995,53.369652],[-6.2558762,53.3696767],[-6.2559311,53.3697171],[-6.255781,53.3698251],[-6.2557364,53.3698784],[-6.2556918,53.3700154],[-6.2556047,53.3700156],[-6.2555241,53.3699959],[-6.2555656,53.3698686],[-6.2555751,53.3698395],[-6.2555624,53.3698311],[-6.2555357,53.3698135],[-6.2555657,53.3697772],[-6.2556132,53.3697792],[-6.2556223,53.3697796]]]}},{"type":"Feature","id":"way/360598735","properties":{"osmType":"way","osmId":360598735,"name":"Lismore - House 3","ref":"T3","building":"dormitory","levels":"3","note":null,"kind":"building","campus":"stpatricks","centroid":[53.3696996,-6.2564754]},"geometry":{"type":"Polygon","coordinates":[[[-6.2565921,53.3696918],[-6.2566085,53.3697174],[-6.256691,53.3698467],[-6.2566173,53.3698743],[-6.2565314,53.369883],[-6.2564477,53.3697519],[-6.2563918,53.3697025],[-6.256214,53.3696119],[-6.2562566,53.3695665],[-6.2563249,53.3695344],[-6.256528,53.3696378],[-6.2565853,53.3696302],[-6.2566235,53.3696636],[-6.2565921,53.3696918]]]}},{"type":"Feature","id":"way/360598736","properties":{"osmType":"way","osmId":360598736,"name":"Moville","ref":null,"building":"dormitory","levels":"3","note":null,"kind":"building","campus":"stpatricks","centroid":[53.3704674,-6.2563015]},"geometry":{"type":"Polygon","coordinates":[[[-6.2561964,53.3704659],[-6.2562029,53.3704463],[-6.2562289,53.3702942],[-6.2563364,53.3703029],[-6.256417,53.3703226],[-6.2563723,53.3704602],[-6.2563762,53.3705199],[-6.2564474,53.3706528],[-6.2563711,53.3706779],[-6.2562846,53.3706838],[-6.2562034,53.370532],[-6.2561479,53.3705205],[-6.2561449,53.3704801],[-6.2561964,53.3704659]]]}},{"type":"Feature","id":"way/360602182","properties":{"osmType":"way","osmId":360602182,"name":null,"ref":null,"building":"dormitory","levels":"1","note":null,"kind":"building","campus":"stpatricks","centroid":[53.3703516,-6.2563431]},"geometry":{"type":"Polygon","coordinates":[[[-6.2563364,53.3703029],[-6.256417,53.3703226],[-6.2564177,53.3703156],[-6.2564193,53.3702995],[-6.2564445,53.3702808],[-6.2563672,53.3702568],[-6.2563113,53.3702169],[-6.2562627,53.3702531],[-6.2562289,53.3702942],[-6.2563364,53.3703029]]]}},{"type":"Feature","id":"way/360602183","properties":{"osmType":"way","osmId":360602183,"name":null,"ref":null,"building":"dormitory","levels":"1","note":null,"kind":"building","campus":"stpatricks","centroid":[53.36995,-6.2566487]},"geometry":{"type":"Polygon","coordinates":[[[-6.256691,53.3698467],[-6.2566173,53.3698743],[-6.2565314,53.369883],[-6.2565427,53.3699007],[-6.2565432,53.3699165],[-6.2566303,53.3699155],[-6.2567192,53.3699329],[-6.2567227,53.3698963],[-6.256691,53.3698467]]]}},{"type":"Feature","id":"way/360602375","properties":{"osmType":"way","osmId":360602375,"name":null,"ref":null,"building":"dormitory","levels":"1","note":null,"kind":"building","campus":"stpatricks","centroid":[53.3700819,-6.2556029]},"geometry":{"type":"Polygon","coordinates":[[[-6.2556047,53.3700156],[-6.2555241,53.3699959],[-6.2555193,53.370052],[-6.2555324,53.3700713],[-6.2555411,53.3700859],[-6.2556374,53.3700705],[-6.2557021,53.3700519],[-6.2556916,53.3700342],[-6.2556918,53.3700154],[-6.2556047,53.3700156]]]}},{"type":"Feature","id":"way/360732281","properties":{"osmType":"way","osmId":360732281,"name":null,"ref":null,"building":"yes","levels":null,"note":null,"kind":"building","campus":"stpatricks","centroid":[53.3696882,-6.2572149]},"geometry":{"type":"Polygon","coordinates":[[[-6.2574084,53.3697486],[-6.2573923,53.3697933],[-6.2570354,53.3697476],[-6.2570515,53.3697029],[-6.2574084,53.3697486]]]}},{"type":"Feature","id":"way/372720575","properties":{"osmType":"way","osmId":372720575,"name":"Belvedere House","ref":"C","building":"house","levels":null,"note":"Considered to be part of the C block for room numbering purposes but has existed for far longer","kind":"building","campus":"stpatricks","centroid":[53.3711764,-6.2548862]},"geometry":{"type":"Polygon","coordinates":[[[-6.2549171,53.3712745],[-6.254771,53.3712461],[-6.2548135,53.3711683],[-6.2548566,53.3710893],[-6.2550026,53.3711176],[-6.2549171,53.3712745]]]}},{"type":"Feature","id":"way/376511712","properties":{"osmType":"way","osmId":376511712,"name":null,"ref":null,"building":"roof","levels":null,"note":null,"kind":"building","campus":"glasnevin","centroid":[53.3850513,-6.2590415]},"geometry":{"type":"Polygon","coordinates":[[[-6.2588464,53.384948],[-6.258843,53.384968],[-6.2588625,53.3849708],[-6.2588633,53.3849942],[-6.2589116,53.3849974],[-6.2589156,53.3849823],[-6.2591626,53.3850011],[-6.2591703,53.3849568],[-6.2592373,53.3849596],[-6.25924,53.3849412],[-6.258902,53.384946],[-6.2588464,53.384948]]]}},{"type":"Feature","id":"way/378127884","properties":{"osmType":"way","osmId":378127884,"name":null,"ref":null,"building":"shed","levels":null,"note":null,"kind":"building","campus":"glasnevin","centroid":[53.3836548,-6.2587104]},"geometry":{"type":"Polygon","coordinates":[[[-6.2587279,53.3836841],[-6.2586696,53.3836791],[-6.2586894,53.3835965],[-6.2587477,53.3836014],[-6.2587279,53.3836841]]]}},{"type":"Feature","id":"way/378127885","properties":{"osmType":"way","osmId":378127885,"name":null,"ref":null,"building":"shed","levels":null,"note":null,"kind":"building","campus":"glasnevin","centroid":[53.3835034,-6.2587301]},"geometry":{"type":"Polygon","coordinates":[[[-6.2587248,53.3835128],[-6.2586931,53.3835882],[-6.2587473,53.3835963],[-6.258779,53.3835209],[-6.2587248,53.3835128]]]}},{"type":"Feature","id":"way/558538103","properties":{"osmType":"way","osmId":558538103,"name":null,"ref":null,"building":"university","levels":null,"note":null,"kind":"building","campus":"glasnevin","centroid":[53.3853006,-6.2595199]},"geometry":{"type":"Polygon","coordinates":[[[-6.2593788,53.3852534],[-6.2596449,53.3852655],[-6.2596482,53.3852398],[-6.259382,53.3852278],[-6.2593788,53.3852534]]]}},{"type":"Feature","id":"way/58217608","properties":{"osmType":"way","osmId":58217608,"name":"John and Aileen O'Reilly Library","ref":"Y","building":"university","levels":null,"note":null,"kind":"building","campus":"glasnevin","centroid":[53.3842093,-6.2545929]},"geometry":{"type":"Polygon","coordinates":[[[-6.2549766,53.3844333],[-6.2550357,53.3843788],[-6.2550901,53.3843196],[-6.2550704,53.3843134],[-6.2549946,53.3842828],[-6.2551055,53.3841782],[-6.2551004,53.3841763],[-6.25509,53.3841724],[-6.255064,53.3841628],[-6.2550978,53.3841303],[-6.2550862,53.384126],[-6.2549144,53.3840621],[-6.2548972,53.3840786],[-6.2548805,53.3840946],[-6.2548382,53.3840788],[-6.2548564,53.3840613],[-6.2548715,53.3840455],[-6.2546846,53.3839762],[-6.2546503,53.384009],[-6.2546086,53.3839935],[-6.2546426,53.3839582],[-6.2544598,53.3838904],[-6.2544511,53.383899],[-6.2544239,53.3839248],[-6.2543816,53.3839091],[-6.2540465,53.3842365],[-6.2540876,53.3842517],[-6.2540572,53.3842808],[-6.2542445,53.3843493],[-6.2542747,53.38432],[-6.2543172,53.3843355],[-6.254288,53.3843639],[-6.2544693,53.3844302],[-6.2544989,53.3844014],[-6.254549,53.3844196],[-6.2545177,53.3844502],[-6.2546966,53.3845154],[-6.2547283,53.3844844],[-6.2547678,53.3844988],[-6.2548035,53.3844638],[-6.2548805,53.3843985],[-6.2549766,53.3844333]]]}},{"type":"Feature","id":"way/58217612","properties":{"osmType":"way","osmId":58217612,"name":"The Helix","ref":"Z","building":"university","levels":null,"note":null,"kind":"building","campus":"glasnevin","centroid":[53.3865061,-6.2592544]},"geometry":{"type":"Polygon","coordinates":[[[-6.2599341,53.3866852],[-6.2599043,53.3867157],[-6.2598685,53.386741],[-6.25981,53.3867697],[-6.2597703,53.3867833],[-6.2597499,53.3867888],[-6.259698,53.386799],[-6.2596425,53.3868044],[-6.2595831,53.3868045],[-6.2595298,53.3867996],[-6.2594049,53.3867881],[-6.2593155,53.3867687],[-6.259254,53.3867387],[-6.2589223,53.3867175],[-6.258929,53.3866807],[-6.2589357,53.3866439],[-6.258756,53.3865335],[-6.2586809,53.3864455],[-6.2589813,53.3863799],[-6.2590001,53.3863544],[-6.2587185,53.3864055],[-6.2585656,53.3863032],[-6.258629,53.3862902],[-6.2586296,53.386247],[-6.2586429,53.3862],[-6.2586581,53.3861687],[-6.2587018,53.3861073],[-6.2587816,53.3861373],[-6.2588492,53.3861642],[-6.2589447,53.3861985],[-6.2590179,53.386178],[-6.2590468,53.3862319],[-6.2593004,53.3863151],[-6.2593703,53.38634],[-6.2599952,53.3865559],[-6.2599899,53.3865831],[-6.2599365,53.386608],[-6.259907,53.3866217],[-6.2599313,53.3866521],[-6.2599341,53.3866852]]]}},{"type":"Feature","id":"way/58217646","properties":{"osmType":"way","osmId":58217646,"name":"DCU Car Park 1","ref":"F","building":"parking","levels":null,"note":null,"kind":"building","campus":"glasnevin","centroid":[53.3867071,-6.2571943]},"geometry":{"type":"Polygon","coordinates":[[[-6.2578649,53.3870136],[-6.2579574,53.3869584],[-6.2580298,53.3868913],[-6.258035,53.3868761],[-6.258052,53.3868261],[-6.2580793,53.3868203],[-6.2581106,53.3868088],[-6.2581399,53.3867781],[-6.258141,53.3867579],[-6.2581295,53.3867377],[-6.2581049,53.3867205],[-6.2580591,53.3867087],[-6.2580227,53.3867095],[-6.2579795,53.3867229],[-6.257629,53.3865926],[-6.2576374,53.3865905],[-6.257645,53.3865875],[-6.2576521,53.3865833],[-6.2576577,53.3865783],[-6.2576625,53.3865701],[-6.257663,53.3865614],[-6.2576597,53.3865537],[-6.2576531,53.3865469],[-6.2576437,53.3865414],[-6.2576319,53.3865375],[-6.2576187,53.3865358],[-6.2576053,53.3865362],[-6.257594,53.3865383],[-6.2575839,53.386542],[-6.2575757,53.3865471],[-6.2575679,53.3865561],[-6.2575657,53.3865661],[-6.2572639,53.3864622],[-6.257276,53.3864602],[-6.2572868,53.3864564],[-6.2572978,53.3864493],[-6.2573044,53.3864405],[-6.257306,53.3864334],[-6.2573046,53.3864262],[-6.2573001,53.3864192],[-6.2572928,53.3864132],[-6.2572832,53.3864084],[-6.2572697,53.3864048],[-6.257255,53.3864038],[-6.2572404,53.3864054],[-6.2572264,53.38641],[-6.2572156,53.386417],[-6.2572092,53.3864255],[-6.2572076,53.3864348],[-6.2570715,53.3863918],[-6.2568276,53.3862948],[-6.2567679,53.386272],[-6.2567021,53.386247],[-6.2565044,53.3864436],[-6.2564985,53.3864494],[-6.2562837,53.3866629],[-6.2565203,53.3867522],[-6.2565022,53.3867693],[-6.2565938,53.3868039],[-6.256612,53.3867868],[-6.2572292,53.3870196],[-6.2572173,53.3870308],[-6.2573076,53.3870649],[-6.2573195,53.3870536],[-6.2575611,53.3871448],[-6.2576718,53.38703],[-6.2576972,53.3870368],[-6.2578448,53.3870116],[-6.2578649,53.3870136]]]}},{"type":"Feature","id":"way/58217711","properties":{"osmType":"way","osmId":58217711,"name":"DCU Business School","ref":"Q","building":"university","levels":"4","note":null,"kind":"building","campus":"glasnevin","centroid":[53.3862182,-6.2574741]},"geometry":{"type":"Polygon","coordinates":[[[-6.2580227,53.3863003],[-6.2576824,53.3861774],[-6.2576463,53.3861644],[-6.2576764,53.3861348],[-6.2574369,53.3860483],[-6.2574707,53.3860151],[-6.2572802,53.3859463],[-6.2572521,53.385974],[-6.2571755,53.3859464],[-6.2571042,53.3860167],[-6.2570588,53.386061],[-6.2569194,53.3861987],[-6.2569891,53.3862238],[-6.2570268,53.3861865],[-6.257217,53.3862551],[-6.2571758,53.3862957],[-6.2572338,53.3863167],[-6.2572713,53.3862797],[-6.2574616,53.3863482],[-6.2574213,53.386388],[-6.2574818,53.3864098],[-6.2575179,53.3863743],[-6.2576926,53.3864373],[-6.2576519,53.3864775],[-6.2577278,53.3865048],[-6.257766,53.3864672],[-6.2578007,53.3864797],[-6.25783,53.3864903],[-6.2580227,53.3863003]]]}},{"type":"Feature","id":"way/77678130","properties":{"osmType":"way","osmId":77678130,"name":"College Park Residences","ref":"W","building":"dormitory","levels":"4","note":"Houses 15 and 16","kind":"building","campus":"glasnevin","centroid":[53.3835821,-6.258458]},"geometry":{"type":"Polygon","coordinates":[[[-6.2583605,53.3838385],[-6.2581699,53.3837689],[-6.2582246,53.3837156],[-6.2582162,53.3837101],[-6.2582527,53.3836748],[-6.2582317,53.3836665],[-6.2582182,53.3836617],[-6.2582488,53.3836324],[-6.2582801,53.3836438],[-6.2583239,53.383606],[-6.258332,53.383609],[-6.2584218,53.383522],[-6.2584125,53.3835186],[-6.2584521,53.3834802],[-6.2584302,53.3834721],[-6.2584177,53.3834678],[-6.2584462,53.3834401],[-6.2584803,53.3834528],[-6.258522,53.3834124],[-6.2585314,53.3834158],[-6.2585352,53.3834121],[-6.2585206,53.3834067],[-6.2585881,53.3833408],[-6.2587037,53.383383],[-6.2586816,53.3834046],[-6.2587406,53.3834261],[-6.2586583,53.3835064],[-6.2585943,53.3835687],[-6.2586215,53.3835786],[-6.2585231,53.3836746],[-6.2584868,53.3836614],[-6.2583713,53.383774],[-6.2584116,53.3837887],[-6.2583995,53.3838004],[-6.2583605,53.3838385]]]}},{"type":"Feature","id":"way/77678138","properties":{"osmType":"way","osmId":77678138,"name":"College Park Residences","ref":"W","building":"dormitory","levels":"4","note":"Houses 11-13","kind":"building","campus":"glasnevin","centroid":[53.3832449,-6.2578563]},"geometry":{"type":"Polygon","coordinates":[[[-6.2576379,53.383567],[-6.2574496,53.383496],[-6.2574972,53.3834483],[-6.2575302,53.3834571],[-6.2576373,53.3833539],[-6.2576059,53.3833438],[-6.2576961,53.3832538],[-6.2577272,53.3832658],[-6.2578322,53.3831633],[-6.2578021,53.3831498],[-6.2578933,53.3830608],[-6.2579272,53.3830732],[-6.2580347,53.3829714],[-6.258006,53.3829592],[-6.2580639,53.3829057],[-6.2581783,53.3829489],[-6.258153,53.3829754],[-6.2582229,53.3830022],[-6.2581938,53.3830331],[-6.2582052,53.3830373],[-6.258172,53.3830694],[-6.2581929,53.3830765],[-6.2581601,53.3831094],[-6.2581503,53.3831057],[-6.2581386,53.3831017],[-6.2581025,53.3831365],[-6.2580908,53.3831322],[-6.2579983,53.3832214],[-6.2580076,53.3832248],[-6.2579646,53.3832663],[-6.2579907,53.3832754],[-6.2579684,53.3832975],[-6.257955,53.3832919],[-6.2579427,53.3832874],[-6.257898,53.3833306],[-6.2578891,53.3833273],[-6.2578006,53.383413],[-6.2578092,53.3834161],[-6.2577613,53.3834628],[-6.257792,53.3834742],[-6.2577696,53.383494],[-6.2577578,53.3834883],[-6.2577418,53.3834817],[-6.2577,53.3835223],[-6.2576894,53.3835184],[-6.2576379,53.383567]]]}},{"type":"Feature","id":"way/77678139","properties":{"osmType":"way","osmId":77678139,"name":"Staff Creche","ref":"R","building":"kindergarten","levels":null,"note":null,"kind":"building","campus":"glasnevin","centroid":[53.3871325,-6.2613522]},"geometry":{"type":"Polygon","coordinates":[[[-6.2612358,53.3870961],[-6.2612774,53.3870415],[-6.2613115,53.3869771],[-6.2613762,53.3869834],[-6.2613912,53.3869548],[-6.2615153,53.3869813],[-6.2614416,53.3871213],[-6.2613757,53.387238],[-6.2612434,53.3872114],[-6.2612562,53.3871888],[-6.2612208,53.3871817],[-6.2611473,53.3871684],[-6.2612358,53.3870961]]]}},{"type":"Feature","id":"way/77678147","properties":{"osmType":"way","osmId":77678147,"name":"Inter Faith Centre","ref":"M","building":"university","levels":null,"note":null,"kind":"building","campus":"glasnevin","centroid":[53.3855141,-6.2589391]},"geometry":{"type":"Polygon","coordinates":[[[-6.2591087,53.3854765],[-6.2590564,53.3855241],[-6.2590336,53.3855573],[-6.2589961,53.3855973],[-6.2589465,53.3856173],[-6.2588942,53.3856085],[-6.2588673,53.3855845],[-6.2588712,53.3855591],[-6.2588935,53.3855338],[-6.2588271,53.3855085],[-6.2588311,53.3854997],[-6.2587963,53.3854981],[-6.2587748,53.3854877],[-6.2587694,53.3854717],[-6.2587855,53.3854533],[-6.2588217,53.3854509],[-6.2588419,53.3854589],[-6.2588499,53.3854477],[-6.2588043,53.3854309],[-6.2588285,53.3854101],[-6.2588687,53.3854269],[-6.2588754,53.3854205],[-6.2589022,53.3854317],[-6.2589116,53.3854181],[-6.2589813,53.3854485],[-6.2589921,53.3854365],[-6.2591087,53.3854765]]]}},{"type":"Feature","id":"way/77678157","properties":{"osmType":"way","osmId":77678157,"name":"Terence Larkin Theatre","ref":"T","building":"university","levels":"2","note":null,"kind":"building","campus":"glasnevin","centroid":[53.3862534,-6.2581843]},"geometry":{"type":"Polygon","coordinates":[[[-6.2580952,53.3863117],[-6.2581395,53.3863164],[-6.2581666,53.3863155],[-6.2581898,53.3863124],[-6.2582244,53.3863034],[-6.2582551,53.3862894],[-6.2582915,53.3863093],[-6.2583172,53.386294],[-6.258335,53.386279],[-6.2583464,53.386266],[-6.2583546,53.3862532],[-6.258362,53.3862342],[-6.2583641,53.3862154],[-6.2583611,53.3861957],[-6.2583521,53.3861756],[-6.2583389,53.3861582],[-6.2583195,53.386141],[-6.2582943,53.3861253],[-6.2582627,53.3861119],[-6.258235,53.386104],[-6.2582029,53.3860983],[-6.258194,53.3861331],[-6.2581698,53.3861295],[-6.2581452,53.3861283],[-6.2581138,53.3861301],[-6.2580752,53.3861379],[-6.2580484,53.3861478],[-6.2580257,53.3861605],[-6.2580077,53.3861757],[-6.2579953,53.386192],[-6.2579874,53.3862147],[-6.2579884,53.3862357],[-6.2579935,53.3862495],[-6.2580017,53.3862622],[-6.258014,53.3862751],[-6.2580348,53.3862899],[-6.2580626,53.3863027],[-6.2580952,53.3863117]]]}},{"type":"Feature","id":"way/923157681","properties":{"osmType":"way","osmId":923157681,"name":"Grace Park Educate Together National School","ref":null,"building":"school","levels":null,"note":null,"kind":"building","campus":"allhallows","centroid":[53.3723934,-6.2476458]},"geometry":{"type":"Polygon","coordinates":[[[-6.2479747,53.3723296],[-6.2481844,53.3723433],[-6.2481348,53.372613],[-6.2479184,53.3725988],[-6.2479435,53.3724623],[-6.2478194,53.372455],[-6.2478051,53.3725419],[-6.2473888,53.3725158],[-6.2474063,53.3724101],[-6.2473144,53.3724047],[-6.2472992,53.3724965],[-6.2470943,53.3724844],[-6.2471367,53.3722279],[-6.2479833,53.3722777],[-6.2479747,53.3723296]]]}},{"type":"Feature","id":"way/923157682","properties":{"osmType":"way","osmId":923157682,"name":null,"ref":null,"building":"yes","levels":null,"note":null,"kind":"building","campus":"allhallows","centroid":[53.3723958,-6.2487173]},"geometry":{"type":"Polygon","coordinates":[[[-6.2489972,53.372401],[-6.2489917,53.3724351],[-6.2484392,53.3724039],[-6.2484446,53.3723697],[-6.2489972,53.372401]]]}},{"type":"Feature","id":"way/923157683","properties":{"osmType":"way","osmId":923157683,"name":null,"ref":null,"building":"yes","levels":null,"note":null,"kind":"building","campus":"allhallows","centroid":[53.3723713,-6.2487319]},"geometry":{"type":"Polygon","coordinates":[[[-6.2490159,53.3723441],[-6.2490098,53.3723838],[-6.2484425,53.3723526],[-6.2484486,53.3723129],[-6.2490159,53.3723441]]]}},{"type":"Feature","id":"way/923157684","properties":{"osmType":"way","osmId":923157684,"name":null,"ref":null,"building":"yes","levels":null,"note":null,"kind":"building","campus":"allhallows","centroid":[53.3724296,-6.2487157]},"geometry":{"type":"Polygon","coordinates":[[[-6.2489985,53.3724834],[-6.2484312,53.3724506],[-6.2484373,53.3724133],[-6.2490046,53.3724461],[-6.2489985,53.3724834]]]}},{"type":"Feature","id":"way/923157685","properties":{"osmType":"way","osmId":923157685,"name":null,"ref":null,"building":"yes","levels":null,"note":null,"kind":"building","campus":"allhallows","centroid":[53.3724875,-6.2487077]},"geometry":{"type":"Polygon","coordinates":[[[-6.2489837,53.3725386],[-6.2484285,53.372509],[-6.2484351,53.3724653],[-6.2489903,53.3724949],[-6.2489837,53.3725386]]]}}]}
